{"type": "FeatureCollection", "name": "poligonos_finales_09062026__poligonos_finales__09062026", "crs": {"type": "name", "properties": {"name": "urn:ogc:def:crs:OGC:1.3:CRS84"}}, "xy_coordinate_resolution": 1e-06, "features": [{"type": "Feature", "properties": {"ID": "23", "NOMENCALTURA": "SNL-BUS-000-1", "ESTATUS 1": "R", "NOMBRE DE PROPIETARIO": "DESCONOCIDO/ GUSTAVO GUERRERO", "COLOR": "#A0522D", "COLOR_RGBA": "#A0522DFF", "COLOR_RGB": "160,82,45"}, "geometry": {"type": "MultiPolygon", "coordinates": [[[[-100.483157, 26.583938, 0.0], [-100.483258, 26.585009, 0.0], [-100.483226, 26.585011, 0.0], [-100.480629, 26.585448, 0.0], [-100.480619, 26.58474, 0.0], [-100.481718, 26.584421, 0.0], [-100.483133, 26.583946, 0.0], [-100.483157, 26.583938, 0.0]]]]}}, {"type": "Feature", "properties": {"ID": "24", "NOMENCALTURA": "SNL-BUS-001", "ESTATUS 1": "NL", "NOMBRE DE PROPIETARIO": "ELVIRO LUIS GARZA MARTINEZ/ Marybel Rmz", "COLOR": "#FF0000", "COLOR_RGBA": "#FF0000FF", "COLOR_RGB": "255,0,0"}, "geometry": {"type": "MultiPolygon", "coordinates": [[[[-100.478132, 26.595457, 0.0], [-100.477791, 26.593056, 0.0], [-100.477564, 26.591463, 0.0], [-100.477338, 26.589875, 0.0], [-100.477116, 26.588312, 0.0], [-100.477101, 26.588205, 0.0], [-100.476812, 26.586172, 0.0], [-100.476805, 26.58612, 0.0], [-100.4768, 26.586091, 0.0], [-100.483226, 26.585011, 0.0], [-100.484437, 26.598826, 0.0], [-100.478767, 26.59992, 0.0], [-100.478132, 26.595457, 0.0]]]]}}, {"type": "Feature", "properties": {"ID": "42", "NOMENCALTURA": "SNL-BUS-011", "ESTATUS 1": "L", "NOMBRE DE PROPIETARIO": "LEAL MALDONADO ALDO SAUL", "COLOR": "#00FF00", "COLOR_RGBA": "#00FF00FF", "COLOR_RGB": "0,255,0"}, "geometry": {"type": "MultiPolygon", "coordinates": [[[[-100.482572, 26.630458, 0.0], [-100.486964, 26.628779, 0.0], [-100.487108, 26.630421, 0.0], [-100.483008, 26.632104, 0.0], [-100.482572, 26.630458, 0.0]]]]}}, {"type": "Feature", "properties": {"ID": "43", "NOMENCALTURA": "SNL-BUS-012", "ESTATUS 1": "L", "NOMBRE DE PROPIETARIO": "LEAL MALDONADO ALDO SAUL", "COLOR": "#00FF00", "COLOR_RGBA": "#00FF00FF", "COLOR_RGB": "0,255,0"}, "geometry": {"type": "MultiPolygon", "coordinates": [[[[-100.483008, 26.632104, 0.0], [-100.487108, 26.630421, 0.0], [-100.487264, 26.632312, 0.0], [-100.483483, 26.633932, 0.0], [-100.483008, 26.632104, 0.0]]]]}}, {"type": "Feature", "properties": {"ID": "10", "NOMENCALTURA": "SNL-VIL-008", "ESTATUS 1": "NL", "NOMBRE DE PROPIETARIO": "MARIA TERESA VILLAREAL RIOS", "COLOR": "#FF0000", "COLOR_RGBA": "#FF0000FF", "COLOR_RGB": "255,0,0"}, "geometry": {"type": "MultiPolygon", "coordinates": [[[[-100.459738, 26.549652, 0.0], [-100.469053, 26.548168, 0.0], [-100.470197, 26.550378, 0.0], [-100.468125, 26.5512, 0.0], [-100.468283, 26.551585, 0.0], [-100.469553, 26.554692, 0.0], [-100.470789, 26.557715, 0.0], [-100.47098, 26.558181, 0.0], [-100.472105, 26.560934, 0.0], [-100.473212, 26.563642, 0.0], [-100.473609, 26.564612, 0.0], [-100.473775, 26.565016, 0.0], [-100.47392, 26.565373, 0.0], [-100.474132, 26.56589, 0.0], [-100.475083, 26.568216, 0.0], [-100.475965, 26.570373, 0.0], [-100.476151, 26.570828, 0.0], [-100.473865, 26.572769, 0.0], [-100.466553, 26.575461, 0.0], [-100.463692, 26.576514, 0.0], [-100.463573, 26.576558, 0.0], [-100.463563, 26.576561, 0.0], [-100.462359, 26.568225, 0.0], [-100.461041, 26.558942, 0.0], [-100.459663, 26.549664, 0.0], [-100.459738, 26.549652, 0.0]]]]}}, {"type": "Feature", "properties": {"ID": "9", "NOMENCALTURA": "SNL-VIL-007", "ESTATUS 1": "R", "NOMBRE DE PROPIETARIO": "GUSTAVO RAMIREZ GONZALEZ", "COLOR": "#A0522D", "COLOR_RGBA": "#A0522DFF", "COLOR_RGB": "160,82,45"}, "geometry": {"type": "MultiPolygon", "coordinates": [[[[-100.466262, 26.546557, 0.0], [-100.466262, 26.546557, 0.0], [-100.46498, 26.547216, 0.0], [-100.46498, 26.547216, 0.0], [-100.463948, 26.547747, 0.0], [-100.463383, 26.545614, 0.0], [-100.463383, 26.545614, 0.0], [-100.463383, 26.545614, 0.0], [-100.465911, 26.545072, 0.0], [-100.465259, 26.546359, 0.0], [-100.467902, 26.546007, 0.0], [-100.468653, 26.547401, 0.0], [-100.467649, 26.547838, 0.0], [-100.466262, 26.546557, 0.0], [-100.466262, 26.546557, 0.0]]]]}}, {"type": "Feature", "properties": {"ID": "8", "NOMENCALTURA": "SNL-VIL-006", "ESTATUS 1": "R", "NOMBRE DE PROPIETARIO": "GUSTAVO RAMIREZ GONZALES", "COLOR": "#A0522D", "COLOR_RGBA": "#A0522DFF", "COLOR_RGB": "160,82,45"}, "geometry": {"type": "MultiPolygon", "coordinates": [[[[-100.463383, 26.545614, 0.0], [-100.463383, 26.545614, 0.0], [-100.463948, 26.547747, 0.0], [-100.46498, 26.547216, 0.0], [-100.46498, 26.547216, 0.0], [-100.466262, 26.546557, 0.0], [-100.466262, 26.546557, 0.0], [-100.467649, 26.547838, 0.0], [-100.468653, 26.547401, 0.0], [-100.468653, 26.547401, 0.0], [-100.469061, 26.548166, 0.0], [-100.469053, 26.548168, 0.0], [-100.459738, 26.549652, 0.0], [-100.459418, 26.547373, 0.0], [-100.460395, 26.547166, 0.0], [-100.461372, 26.546959, 0.0], [-100.461246, 26.546063, 0.0], [-100.463383, 26.545614, 0.0]]]]}}, {"type": "Feature", "properties": {"ID": "7", "NOMENCALTURA": "SNL-VIL-007-1-GS", "ESTATUS 1": "R", "NOMBRE DE PROPIETARIO": "DESCONOCIDO", "COLOR": "#A0522D", "COLOR_RGBA": "#A0522DFF", "COLOR_RGB": "160,82,45"}, "geometry": {"type": "MultiPolygon", "coordinates": [[[[-100.467902, 26.546007, 0.0], [-100.465259, 26.546359, 0.0], [-100.465911, 26.545072, 0.0], [-100.467203, 26.544725, 0.0], [-100.467902, 26.546007, 0.0]]]]}}, {"type": "Feature", "properties": {"ID": "3", "NOMENCALTURA": "SNL-VIL-003", "ESTATUS 1": "R", "NOMBRE DE PROPIETARIO": "MAXIMO PALOMO VARGAS ", "COLOR": "#A0522D", "COLOR_RGBA": "#A0522DFF", "COLOR_RGB": "160,82,45"}, "geometry": {"type": "MultiPolygon", "coordinates": [[[[-100.436583, 26.490451, 0.0], [-100.437012, 26.491314, 0.0], [-100.435238, 26.492263, 0.0], [-100.434694, 26.490602, 0.0], [-100.435819, 26.490216, 0.0], [-100.436178, 26.490697, 0.0], [-100.436583, 26.490451, 0.0]]]]}}, {"type": "Feature", "properties": {"ID": "80", "NOMENCALTURA": "SNL-SLV-054", "ESTATUS 1": "L", "NOMBRE DE PROPIETARIO": "HECTOR ALEJANDRO GARCIA GOMEZ", "COLOR": "#00FF00", "COLOR_RGBA": "#00FF00FF", "COLOR_RGB": "0,255,0"}, "geometry": {"type": "MultiPolygon", "coordinates": [[[[-100.366336, 26.247946, 0.0], [-100.364556, 26.238149, 0.0], [-100.370577, 26.235621, 0.0], [-100.370596, 26.235616, 0.0], [-100.372017, 26.245934, 0.0], [-100.372031, 26.246039, 0.0], [-100.366336, 26.247946, 0.0]]]]}}, {"type": "Feature", "properties": {"ID": "58", "NOMENCALTURA": "SNL-SLV-037", "ESTATUS 1": "R", "NOMBRE DE PROPIETARIO": "LUIS VILLAREAL COMPEAN ", "COLOR": "#A0522D", "COLOR_RGBA": "#A0522DFF", "COLOR_RGB": "160,82,45"}, "geometry": {"type": "MultiPolygon", "coordinates": [[[[-100.314415, 26.087457, 0.0], [-100.314751, 26.088309, 0.0], [-100.310782, 26.090345, 0.0], [-100.310445, 26.089489, 0.0], [-100.314415, 26.087457, 0.0]]]]}}, {"type": "Feature", "properties": {"ID": "53", "NOMENCALTURA": "SNL-SLV-033", "ESTATUS 1": "R", "NOMBRE DE PROPIETARIO": "BANCO ACTINVER S.A. DE C.V. (ARMANDO LOZANO BENAVIDES)", "COLOR": "#A0522D", "COLOR_RGBA": "#A0522DFF", "COLOR_RGB": "160,82,45"}, "geometry": {"type": "MultiPolygon", "coordinates": [[[[-100.291957, 26.07696, 0.0], [-100.289726, 26.071548, 0.0], [-100.28895, 26.069673, 0.0], [-100.288075, 26.067557, 0.0], [-100.288089, 26.067568, 0.0], [-100.288079, 26.067543, 0.0], [-100.291094, 26.065815, 0.0], [-100.292016, 26.065291, 0.0], [-100.292714, 26.06697, 0.0], [-100.295455, 26.065513, 0.0], [-100.294502, 26.063875, 0.0], [-100.295478, 26.06332, 0.0], [-100.297272, 26.0679, 0.0], [-100.298022, 26.069791, 0.0], [-100.298784, 26.071733, 0.0], [-100.299508, 26.073564, 0.0], [-100.30338, 26.071621, 0.0], [-100.303432, 26.071595, 0.0], [-100.307344, 26.069653, 0.0], [-100.307473, 26.069589, 0.0], [-100.307479, 26.069604, 0.0], [-100.308161, 26.07132, 0.0], [-100.309191, 26.074284, 0.0], [-100.306714, 26.075601, 0.0], [-100.307804, 26.078481, 0.0], [-100.308201, 26.07953, 0.0], [-100.304261, 26.081732, 0.0], [-100.304159, 26.081789, 0.0], [-100.303008, 26.082432, 0.0], [-100.303995, 26.084943, 0.0], [-100.30582, 26.089583, 0.0], [-100.298272, 26.095394, 0.0], [-100.297866, 26.095706, 0.0], [-100.2977, 26.095821, 0.0], [-100.296699, 26.096589, 0.0], [-100.296591, 26.096673, 0.0], [-100.295842, 26.094788, 0.0], [-100.294249, 26.09078, 0.0], [-100.293623, 26.089206, 0.0], [-100.293605, 26.08916, 0.0], [-100.2961, 26.086969, 0.0], [-100.296087, 26.086937, 0.0], [-100.295945, 26.086594, 0.0], [-100.294817, 26.083874, 0.0], [-100.293116, 26.07977, 0.0], [-100.292738, 26.078853, 0.0], [-100.291957, 26.07696, 0.0]]]]}}, {"type": "Feature", "properties": {"ID": "52", "NOMENCALTURA": "SNL-SLV-032", "ESTATUS 1": "NL", "NOMBRE DE PROPIETARIO": "SOLUCIONES EN EQUIPAMIENTO TNAGAMANGA S.A. DE C.V.", "COLOR": "#FF0000", "COLOR_RGBA": "#FF0000FF", "COLOR_RGB": "255,0,0"}, "geometry": {"type": "MultiPolygon", "coordinates": [[[[-100.297884, 26.061929, 0.0], [-100.29787, 26.061905, 0.0], [-100.300259, 26.06054, 0.0], [-100.302788, 26.063892, 0.0], [-100.304881, 26.066583, 0.0], [-100.305943, 26.065924, 0.0], [-100.307344, 26.069653, 0.0], [-100.303432, 26.071595, 0.0], [-100.30338, 26.071621, 0.0], [-100.297884, 26.061929, 0.0]]]]}}, {"type": "Feature", "properties": {"ID": "50", "NOMENCALTURA": "SNL-SLV-030", "ESTATUS 1": "L", "NOMBRE DE PROPIETARIO": "HERIBERTO SERGIO CARDENAS", "COLOR": "#00FF00", "COLOR_RGBA": "#00FF00FF", "COLOR_RGB": "0,255,0"}, "geometry": {"type": "MultiPolygon", "coordinates": [[[[-100.303699, 26.058655, 0.0], [-100.304266, 26.061556, 0.0], [-100.30505, 26.063781, 0.0], [-100.30422, 26.064202, 0.0], [-100.301941, 26.059504, 0.0], [-100.303699, 26.058655, 0.0]]]]}}, {"type": "Feature", "properties": {"ID": "49", "NOMENCALTURA": "SNL-SLV-029", "ESTATUS 1": "NG", "NOMBRE DE PROPIETARIO": "MEXICANA DE ARROZ", "COLOR": "#FFFF00", "COLOR_RGBA": "#FFFF00FF", "COLOR_RGB": "255,255,0"}, "geometry": {"type": "MultiPolygon", "coordinates": [[[[-100.302366, 26.056096, 0.0], [-100.303218, 26.055458, 0.0], [-100.303275, 26.055892, 0.0], [-100.302385, 26.056237, 0.0], [-100.302649, 26.057806, 0.0], [-100.302801, 26.058709, 0.0], [-100.302673, 26.058786, 0.0], [-100.301925, 26.059207, 0.0], [-100.30173, 26.058049, 0.0], [-100.301513, 26.056747, 0.0], [-100.301512, 26.056735, 0.0], [-100.302366, 26.056096, 0.0]]]]}}, {"type": "Feature", "properties": {"ID": "30", "NOMENCALTURA": "SNL-SLV-013", "ESTATUS 1": "L", "NOMBRE DE PROPIETARIO": "ACRILUX S.A. DE C.V.", "COLOR": "#00FF00", "COLOR_RGBA": "#00FF00FF", "COLOR_RGB": "0,255,0"}, "geometry": {"type": "MultiPolygon", "coordinates": [[[[-100.298372, 26.024211, 0.0], [-100.298564, 26.024798, 0.0], [-100.298846, 26.025675, 0.0], [-100.299136, 26.026535, 0.0], [-100.299153, 26.026609, 0.0], [-100.299403, 26.027403, 0.0], [-100.299693, 26.028293, 0.0], [-100.299761, 26.028504, 0.0], [-100.295706, 26.030618, 0.0], [-100.29566, 26.030669, 0.0], [-100.29526, 26.030132, 0.0], [-100.295042, 26.030026, 0.0], [-100.294773, 26.029867, 0.0], [-100.293827, 26.029131, 0.0], [-100.293638, 26.028934, 0.0], [-100.293464, 26.028776, 0.0], [-100.293302, 26.028583, 0.0], [-100.29299, 26.028237, 0.0], [-100.292721, 26.027982, 0.0], [-100.292167, 26.027364, 0.0], [-100.291868, 26.027074, 0.0], [-100.291537, 26.026769, 0.0], [-100.291038, 26.026302, 0.0], [-100.290831, 26.026082, 0.0], [-100.290708, 26.02592, 0.0], [-100.290555, 26.025576, 0.0], [-100.290487, 26.025475, 0.0], [-100.290464, 26.025377, 0.0], [-100.290421, 26.025258, 0.0], [-100.297937, 26.024265, 0.0], [-100.298273, 26.02422, 0.0], [-100.298336, 26.024211, 0.0], [-100.298372, 26.024211, 0.0], [-100.298372, 26.024211, 0.0]]]]}}, {"type": "Feature", "properties": {"ID": "1", "NOMENCALTURA": "SNL-SLV-008", "ESTATUS 1": "NG", "NOMBRE DE PROPIETARIO": "INMOBILIARIA MAFESA S.A. DE C.V.", "COLOR": "#FFFF00", "COLOR_RGBA": "#FFFF00FF", "COLOR_RGB": "255,255,0"}, "geometry": {"type": "MultiPolygon", "coordinates": [[[[-100.283762, 25.987253, 0.0], [-100.28356, 25.986897, 0.0], [-100.286009, 25.985969, 0.0], [-100.286084, 25.986252, 0.0], [-100.286212, 25.986691, 0.0], [-100.286358, 25.987129, 0.0], [-100.286493, 25.987552, 0.0], [-100.286607, 25.987909, 0.0], [-100.286574, 25.987918, 0.0], [-100.284694, 25.988097, 0.0], [-100.284333, 25.988197, 0.0], [-100.284161, 25.988291, 0.0], [-100.28406, 25.988002, 0.0], [-100.283929, 25.987645, 0.0], [-100.283762, 25.987253, 0.0]]]]}}, {"type": "Feature", "properties": {"ID": "39", "NOMENCALTURA": "SNL-FRV-P111", "ESTATUS 1": "NL", "NOMBRE DE PROPIETARIO": "JUAN ANTONIO RAMOS AMARO", "COLOR": "#FF0000", "COLOR_RGBA": "#FF0000FF", "COLOR_RGB": "255,0,0"}, "geometry": {"type": "MultiPolygon", "coordinates": [[[[-100.482533, 26.621675, 0.0], [-100.482595, 26.620744, 0.0], [-100.486209, 26.619851, 0.0], [-100.486466, 26.622906, 0.0], [-100.482533, 26.621675, 0.0]]]]}}, {"type": "Feature", "properties": {"ID": "40", "NOMENCALTURA": "SNL-FRV-P105", "ESTATUS 1": "NG", "NOMBRE DE PROPIETARIO": "JESUS PERALES CONTRERAS", "COLOR": "#FFFF00", "COLOR_RGBA": "#FFFF00FF", "COLOR_RGB": "255,255,0"}, "geometry": {"type": "MultiPolygon", "coordinates": [[[[-100.486658, 26.625151, 0.0], [-100.482384, 26.623845, 0.0], [-100.482533, 26.621675, 0.0], [-100.486466, 26.622906, 0.0], [-100.486658, 26.625151, 0.0]]]]}}, {"type": "Feature", "properties": {"ID": "27", "NOMENCALTURA": "SNL-SLV-011-20", "ESTATUS 1": "NG", "NOMBRE DE PROPIETARIO": "CAMINO MUNICIPAL (5)", "COLOR": "#FFFF00", "COLOR_RGBA": "#FFFF00FF", "COLOR_RGB": "255,255,0"}, "geometry": {"type": "MultiPolygon", "coordinates": [[[[-100.296775, 26.019396, 0.0], [-100.296647, 26.019419, 0.0], [-100.296502, 26.018972, 0.0], [-100.29639, 26.018626, 0.0], [-100.296362, 26.018541, 0.0], [-100.296277, 26.018279, 0.0], [-100.296402, 26.018246, 0.0], [-100.296775, 26.019396, 0.0]]]]}}, {"type": "Feature", "properties": {"ID": "26", "NOMENCALTURA": "SNL-SLV-011-19", "ESTATUS 1": "NG", "NOMBRE DE PROPIETARIO": "CAMINO MUNICIPAL (4)", "COLOR": "#FFFF00", "COLOR_RGBA": "#FFFF00FF", "COLOR_RGB": "255,255,0"}, "geometry": {"type": "MultiPolygon", "coordinates": [[[[-100.296402, 26.018246, 0.0], [-100.296277, 26.018279, 0.0], [-100.296277, 26.018279, 0.0], [-100.296277, 26.018279, 0.0], [-100.295927, 26.017196, 0.0], [-100.296051, 26.017163, 0.0], [-100.296402, 26.018246, 0.0]]]]}}, {"type": "Feature", "properties": {"ID": "24", "NOMENCALTURA": "SNL*SLV-011-17", "ESTATUS 1": "NL", "NOMBRE DE PROPIETARIO": "CAMINO MUNICIPAL (2)", "COLOR": "#FF0000", "COLOR_RGBA": "#FF0000FF", "COLOR_RGB": "255,0,0"}, "geometry": {"type": "MultiPolygon", "coordinates": [[[[-100.295225, 26.01503, 0.0], [-100.29535, 26.014997, 0.0], [-100.295701, 26.01608, 0.0], [-100.295576, 26.016113, 0.0], [-100.295225, 26.01503, 0.0]]]]}}, {"type": "Feature", "properties": {"ID": "23", "NOMENCALTURA": "SNL-SLV-011-16", "ESTATUS 1": "NG", "NOMBRE DE PROPIETARIO": "CAMINO MUNICIPAL (1)", "COLOR": "#FFFF00", "COLOR_RGBA": "#FFFF00FF", "COLOR_RGB": "255,255,0"}, "geometry": {"type": "MultiPolygon", "coordinates": [[[[-100.29535, 26.014997, 0.0], [-100.295225, 26.01503, 0.0], [-100.295001, 26.014337, 0.0], [-100.294781, 26.013656, 0.0], [-100.294877, 26.013537, 0.0], [-100.29535, 26.014997, 0.0]]]]}}, {"type": "Feature", "properties": {"ID": "25", "NOMENCALTURA": "SNL-SLV-011-18", "ESTATUS 1": "NG", "NOMBRE DE PROPIETARIO": "CAMINO MUNICIPAL (3)", "COLOR": "#FFFF00", "COLOR_RGBA": "#FFFF00FF", "COLOR_RGB": "255,255,0"}, "geometry": {"type": "MultiPolygon", "coordinates": [[[[-100.295576, 26.016113, 0.0], [-100.295701, 26.01608, 0.0], [-100.296051, 26.017163, 0.0], [-100.295927, 26.017196, 0.0], [-100.295576, 26.016113, 0.0]]]]}}, {"type": "Feature", "properties": {"ID": "28", "NOMENCALTURA": "SNL-SLV-011-21", "ESTATUS 1": "NG", "NOMBRE DE PROPIETARIO": "CAMINO MUNICIPAL (6)", "COLOR": "#FFFF00", "COLOR_RGBA": "#FFFF00FF", "COLOR_RGB": "255,255,0"}, "geometry": {"type": "MultiPolygon", "coordinates": [[[[-100.296836, 26.019587, 0.0], [-100.296709, 26.01961, 0.0], [-100.296647, 26.019419, 0.0], [-100.296775, 26.019396, 0.0], [-100.296836, 26.019587, 0.0]]]]}}, {"type": "Feature", "properties": {"ID": "49", "NOMENCALTURA": "SNL-LAM-002", "ESTATUS 1": "L", "NOMBRE DE PROPIETARIO": "ALONSO QUIJANO DAVALOS Y TERESA QUIJANO DAVALOS", "COLOR": "#00FF00", "COLOR_RGBA": "#00FF00FF", "COLOR_RGB": "0,255,0"}, "geometry": {"type": "MultiPolygon", "coordinates": [[[[-100.500031, 26.783774, 0.0], [-100.490341, 26.784426, 0.0], [-100.4903, 26.763555, 0.0], [-100.498035, 26.760871, 0.0], [-100.498084, 26.761007, 0.0], [-100.498106, 26.761103, 0.0], [-100.498109, 26.761115, 0.0], [-100.498113, 26.761136, 0.0], [-100.498143, 26.761252, 0.0], [-100.498143, 26.761252, 0.0], [-100.498713, 26.768048, 0.0], [-100.500031, 26.783774, 0.0]]]]}}, {"type": "Feature", "properties": {"ID": "2", "NOMENCALTURA": "SNL-SLV-008-10-GS", "ESTATUS 1": "NG", "NOMBRE DE PROPIETARIO": "PROMOTORA PERIFERICA S.A. DE C.V.", "COLOR": "#FFFF00", "COLOR_RGBA": "#FFFF00FF", "COLOR_RGB": "255,255,0"}, "geometry": {"type": "MultiPolygon", "coordinates": [[[[-100.288109, 25.992651, 0.0], [-100.284157, 25.993323, 0.0], [-100.284376, 25.992845, 0.0], [-100.28446, 25.992287, 0.0], [-100.284364, 25.989278, 0.0], [-100.284323, 25.988719, 0.0], [-100.284161, 25.988291, 0.0], [-100.284333, 25.988197, 0.0], [-100.284694, 25.988097, 0.0], [-100.286574, 25.987918, 0.0], [-100.288109, 25.992651, 0.0]]]]}}, {"type": "Feature", "properties": {"ID": "3", "NOMENCALTURA": "SNL-SLV-008-11", "ESTATUS 1": "R", "NOMBRE DE PROPIETARIO": "BOTELLO FERNDANDEZ BEATRIZ EUGENIA", "COLOR": "#A0522D", "COLOR_RGBA": "#A0522DFF", "COLOR_RGB": "160,82,45"}, "geometry": {"type": "MultiPolygon", "coordinates": [[[[-100.284265, 26.000226, 0.0], [-100.284168, 26.000068, 0.0], [-100.284106, 25.999959, 0.0], [-100.284051, 25.999846, 0.0], [-100.284003, 25.999731, 0.0], [-100.283963, 25.999614, 0.0], [-100.28393, 25.999495, 0.0], [-100.283905, 25.999374, 0.0], [-100.283888, 25.999252, 0.0], [-100.283879, 25.99913, 0.0], [-100.283878, 25.999018, 0.0], [-100.283884, 25.998906, 0.0], [-100.283896, 25.998794, 0.0], [-100.283914, 25.998683, 0.0], [-100.283939, 25.998574, 0.0], [-100.283971, 25.998465, 0.0], [-100.284008, 25.998359, 0.0], [-100.284056, 25.998247, 0.0], [-100.284061, 25.998236, 0.0], [-100.284066, 25.998225, 0.0], [-100.284071, 25.998214, 0.0], [-100.284077, 25.998203, 0.0], [-100.284084, 25.998188, 0.0], [-100.284088, 25.998181, 0.0], [-100.284088, 25.99818, 0.0], [-100.284093, 25.998169, 0.0], [-100.284099, 25.998158, 0.0], [-100.284105, 25.998147, 0.0], [-100.284111, 25.998137, 0.0], [-100.284111, 25.998136, 0.0], [-100.284117, 25.998126, 0.0], [-100.284129, 25.998104, 0.0], [-100.284135, 25.998093, 0.0], [-100.284141, 25.998082, 0.0], [-100.284147, 25.998071, 0.0], [-100.284153, 25.998061, 0.0], [-100.284154, 25.998061, 0.0], [-100.28416, 25.99805, 0.0], [-100.284166, 25.998039, 0.0], [-100.284173, 25.998029, 0.0], [-100.284179, 25.998018, 0.0], [-100.284186, 25.998008, 0.0], [-100.284193, 25.997997, 0.0], [-100.284203, 25.997983, 0.0], [-100.284213, 25.997966, 0.0], [-100.284214, 25.997965, 0.0], [-100.284214, 25.997965, 0.0], [-100.284228, 25.997945, 0.0], [-100.284235, 25.997935, 0.0], [-100.284242, 25.997924, 0.0], [-100.284249, 25.997914, 0.0], [-100.284256, 25.997904, 0.0], [-100.284264, 25.997894, 0.0], [-100.284271, 25.997884, 0.0], [-100.284271, 25.997883, 0.0], [-100.284279, 25.997873, 0.0], [-100.284286, 25.997863, 0.0], [-100.284302, 25.997843, 0.0], [-100.28431, 25.997834, 0.0], [-100.28431, 25.997833, 0.0], [-100.284317, 25.997824, 0.0], [-100.284325, 25.997814, 0.0], [-100.284333, 25.997804, 0.0], [-100.28434, 25.997795, 0.0], [-100.284358, 25.997775, 0.0], [-100.284366, 25.997765, 0.0], [-100.284374, 25.997756, 0.0], [-100.284373, 25.997757, 0.0], [-100.284391, 25.997737, 0.0], [-100.284399, 25.997727, 0.0], [-100.284408, 25.997718, 0.0], [-100.284416, 25.997708, 0.0], [-100.284434, 25.99769, 0.0], [-100.284443, 25.997681, 0.0], [-100.284451, 25.997671, 0.0], [-100.28446, 25.997663, 0.0], [-100.28446, 25.997662, 0.0], [-100.284469, 25.997653, 0.0], [-100.284478, 25.997644, 0.0], [-100.284487, 25.997635, 0.0], [-100.284496, 25.997626, 0.0], [-100.284506, 25.997617, 0.0], [-100.284772, 25.997361, 0.0], [-100.284772, 25.99736, 0.0], [-100.285524, 25.996635, 0.0], [-100.285697, 25.996468, 0.0], [-100.286212, 25.995971, 0.0], [-100.286283, 25.995899, 0.0], [-100.286349, 25.995825, 0.0], [-100.28635, 25.995824, 0.0], [-100.28641, 25.995749, 0.0], [-100.28647, 25.995666, 0.0], [-100.286525, 25.995581, 0.0], [-100.286575, 25.995494, 0.0], [-100.28662, 25.995404, 0.0], [-100.286666, 25.995297, 0.0], [-100.286705, 25.995188, 0.0], [-100.286737, 25.995076, 0.0], [-100.286761, 25.994964, 0.0], [-100.286778, 25.99485, 0.0], [-100.286788, 25.994735, 0.0], [-100.28679, 25.99462, 0.0], [-100.286786, 25.99453, 0.0], [-100.286785, 25.994526, 0.0], [-100.286773, 25.994409, 0.0], [-100.286753, 25.994293, 0.0], [-100.286621, 25.993661, 0.0], [-100.286621, 25.99366, 0.0], [-100.28658, 25.993462, 0.0], [-100.286575, 25.99342, 0.0], [-100.286577, 25.993377, 0.0], [-100.286587, 25.993336, 0.0], [-100.286604, 25.993296, 0.0], [-100.286627, 25.993259, 0.0], [-100.286656, 25.993226, 0.0], [-100.286691, 25.993198, 0.0], [-100.286731, 25.993174, 0.0], [-100.286774, 25.993157, 0.0], [-100.286819, 25.993146, 0.0], [-100.287998, 25.992917, 0.0], [-100.288189, 25.992885, 0.0], [-100.288291, 25.993197, 0.0], [-100.288423, 25.993626, 0.0], [-100.28856, 25.994061, 0.0], [-100.288698, 25.994495, 0.0], [-100.288979, 25.995362, 0.0], [-100.289059, 25.995601, 0.0], [-100.284265, 26.000226, 0.0]]]]}}, {"type": "Feature", "properties": {"ID": "4", "NOMENCALTURA": "SNL-SLV-008-12-GS", "ESTATUS 1": "NL", "NOMBRE DE PROPIETARIO": "JESUS ERNESTO LOPEZ RIVERA", "COLOR": "#FF0000", "COLOR_RGBA": "#FF0000FF", "COLOR_RGB": "255,0,0"}, "geometry": {"type": "MultiPolygon", "coordinates": [[[[-100.284265, 26.000226, 0.0], [-100.289059, 25.995601, 0.0], [-100.28906, 25.995605, 0.0], [-100.289119, 25.995787, 0.0], [-100.289268, 25.996224, 0.0], [-100.289413, 25.996685, 0.0], [-100.289687, 25.997535, 0.0], [-100.289826, 25.997957, 0.0], [-100.289968, 25.998391, 0.0], [-100.290108, 25.998824, 0.0], [-100.290254, 25.999275, 0.0], [-100.29037, 25.999477, 0.0], [-100.29037, 25.999478, 0.0], [-100.285586, 26.002387, 0.0], [-100.285509, 26.002434, 0.0], [-100.284286, 26.000373, 0.0], [-100.284223, 26.000267, 0.0], [-100.284265, 26.000226, 0.0]]]]}}, {"type": "Feature", "properties": {"ID": "5", "NOMENCALTURA": "SNL-SLV-009", "ESTATUS 1": "NL", "NOMBRE DE PROPIETARIO": "PRODUCTORA DE POLLO DE ENGORDA S.A. DE C.V.", "COLOR": "#FF0000", "COLOR_RGBA": "#FF0000FF", "COLOR_RGB": "255,0,0"}, "geometry": {"type": "MultiPolygon", "coordinates": [[[[-100.285586, 26.002387, 0.0], [-100.29037, 25.999478, 0.0], [-100.290438, 25.999678, 0.0], [-100.290581, 26.000124, 0.0], [-100.29071, 26.000544, 0.0], [-100.290862, 26.000979, 0.0], [-100.291012, 26.001441, 0.0], [-100.291143, 26.00185, 0.0], [-100.291279, 26.002275, 0.0], [-100.291416, 26.002712, 0.0], [-100.291497, 26.002931, 0.0], [-100.292052, 26.00465, 0.0], [-100.29213, 26.004886, 0.0], [-100.29252, 26.006099, 0.0], [-100.292521, 26.006102, 0.0], [-100.29247, 26.006101, 0.0], [-100.290772, 26.006075, 0.0], [-100.289121, 26.011264, 0.0], [-100.288961, 26.011774, 0.0], [-100.288553, 26.013079, 0.0], [-100.288247, 26.014036, 0.0], [-100.288242, 26.014254, 0.0], [-100.288312, 26.014414, 0.0], [-100.28844, 26.014615, 0.0], [-100.288596, 26.014906, 0.0], [-100.288667, 26.01505, 0.0], [-100.288479, 26.015006, 0.0], [-100.288273, 26.014956, 0.0], [-100.288164, 26.014969, 0.0], [-100.28805, 26.01502, 0.0], [-100.287887, 26.014967, 0.0], [-100.287691, 26.015071, 0.0], [-100.287206, 26.015153, 0.0], [-100.287011, 26.015219, 0.0], [-100.286383, 26.015277, 0.0], [-100.285783, 26.015333, 0.0], [-100.285483, 26.015325, 0.0], [-100.285387, 26.015131, 0.0], [-100.2853, 26.014861, 0.0], [-100.285233, 26.01456, 0.0], [-100.28525, 26.01442, 0.0], [-100.285101, 26.013815, 0.0], [-100.285081, 26.013412, 0.0], [-100.28506, 26.01337, 0.0], [-100.28506, 26.013187, 0.0], [-100.285044, 26.012817, 0.0], [-100.284943, 26.012433, 0.0], [-100.28569, 26.012077, 0.0], [-100.285961, 26.011324, 0.0], [-100.287799, 26.00612, 0.0], [-100.287797, 26.006006, 0.0], [-100.285586, 26.002387, 0.0]]]]}}, {"type": "Feature", "properties": {"ID": "6", "NOMENCALTURA": "SNL-SLV-010", "ESTATUS 1": "R", "NOMBRE DE PROPIETARIO": "BOTELLO FERNDANDEZ ALICIA MARGARITA", "COLOR": "#A0522D", "COLOR_RGBA": "#A0522DFF", "COLOR_RGB": "160,82,45"}, "geometry": {"type": "MultiPolygon", "coordinates": [[[[-100.288961, 26.011774, 0.0], [-100.289121, 26.011264, 0.0], [-100.290772, 26.006075, 0.0], [-100.29247, 26.006101, 0.0], [-100.292521, 26.006102, 0.0], [-100.292777, 26.007053, 0.0], [-100.293181, 26.008299, 0.0], [-100.293189, 26.008324, 0.0], [-100.291672, 26.008725, 0.0], [-100.290868, 26.008764, 0.0], [-100.290727, 26.009479, 0.0], [-100.290233, 26.011979, 0.0], [-100.288961, 26.011774, 0.0]]]]}}, {"type": "Feature", "properties": {"ID": "7", "NOMENCALTURA": "SNL-SLV-011", "ESTATUS 1": "NL", "NOMBRE DE PROPIETARIO": "BOTELLO FERNANDEZ MARCELA MARIA", "COLOR": "#FF0000", "COLOR_RGBA": "#FF0000FF", "COLOR_RGB": "255,0,0"}, "geometry": {"type": "MultiPolygon", "coordinates": [[[[-100.291672, 26.008725, 0.0], [-100.293189, 26.008324, 0.0], [-100.293475, 26.009223, 0.0], [-100.294013, 26.010882, 0.0], [-100.294185, 26.011388, 0.0], [-100.294875, 26.013539, 0.0], [-100.294781, 26.013656, 0.0], [-100.294781, 26.013656, 0.0], [-100.29424, 26.014325, 0.0], [-100.293942, 26.014694, 0.0], [-100.293614, 26.014723, 0.0], [-100.291672, 26.008725, 0.0]]]]}}, {"type": "Feature", "properties": {"ID": "8", "NOMENCALTURA": "SNL-SLV-011-1", "ESTATUS 1": "L", "NOMBRE DE PROPIETARIO": "MONICA ALEJANDRA GUADALUPE BOTELLO FERNANDEZ", "COLOR": "#00FF00", "COLOR_RGBA": "#00FF00FF", "COLOR_RGB": "0,255,0"}, "geometry": {"type": "MultiPolygon", "coordinates": [[[[-100.29424, 26.014325, 0.0], [-100.294781, 26.013656, 0.0], [-100.294781, 26.013656, 0.0], [-100.295001, 26.014337, 0.0], [-100.294303, 26.014521, 0.0], [-100.29424, 26.014325, 0.0]]]]}}, {"type": "Feature", "properties": {"ID": "16", "NOMENCALTURA": "SNL-SLV-011-9", "ESTATUS 1": "L", "NOMBRE DE PROPIETARIO": "MONICA ALEJANDRA GUADALUPE BOTELLO FERNANDEZ", "COLOR": "#00FF00", "COLOR_RGBA": "#00FF00FF", "COLOR_RGB": "0,255,0"}, "geometry": {"type": "MultiPolygon", "coordinates": [[[[-100.295927, 26.017196, 0.0], [-100.295229, 26.01738, 0.0], [-100.295111, 26.017016, 0.0], [-100.295809, 26.016832, 0.0], [-100.295927, 26.017196, 0.0]]]]}}, {"type": "Feature", "properties": {"ID": "15", "NOMENCALTURA": "SNL-SLV-011-8", "ESTATUS 1": "L", "NOMBRE DE PROPIETARIO": "MONICA ALEJANDRA GUADALUPE BOTELLO FERNANDEZ", "COLOR": "#00FF00", "COLOR_RGBA": "#00FF00FF", "COLOR_RGB": "0,255,0"}, "geometry": {"type": "MultiPolygon", "coordinates": [[[[-100.295809, 26.016832, 0.0], [-100.295111, 26.017016, 0.0], [-100.295054, 26.016839, 0.0], [-100.294996, 26.016661, 0.0], [-100.295694, 26.016477, 0.0], [-100.295809, 26.016832, 0.0]]]]}}, {"type": "Feature", "properties": {"ID": "14", "NOMENCALTURA": "SNL-SLV-011-7", "ESTATUS 1": "L", "NOMBRE DE PROPIETARIO": "MONICA ALEJANDRA GUADALUPE BOTELLO FERNANDEZ", "COLOR": "#00FF00", "COLOR_RGBA": "#00FF00FF", "COLOR_RGB": "0,255,0"}, "geometry": {"type": "MultiPolygon", "coordinates": [[[[-100.295694, 26.016477, 0.0], [-100.294996, 26.016661, 0.0], [-100.294878, 26.016297, 0.0], [-100.295576, 26.016113, 0.0], [-100.295694, 26.016477, 0.0]]]]}}, {"type": "Feature", "properties": {"ID": "18", "NOMENCALTURA": "SNL-SLV-011-11", "ESTATUS 1": "L", "NOMBRE DE PROPIETARIO": "MONICA ALEJANDRA GUADALUPE BOTELLO FERNANDEZ", "COLOR": "#00FF00", "COLOR_RGBA": "#00FF00FF", "COLOR_RGB": "0,255,0"}, "geometry": {"type": "MultiPolygon", "coordinates": [[[[-100.295153, 26.017796, 0.0], [-100.296045, 26.01756, 0.0], [-100.29616, 26.017915, 0.0], [-100.295268, 26.018151, 0.0], [-100.29521, 26.017973, 0.0], [-100.295153, 26.017796, 0.0]]]]}}, {"type": "Feature", "properties": {"ID": "17", "NOMENCALTURA": "SNL-SLV-011-10", "ESTATUS 1": "L", "NOMBRE DE PROPIETARIO": "MONICA ALEJANDRA GUADALUPE BOTELLO FERNANDEZ", "COLOR": "#00FF00", "COLOR_RGBA": "#00FF00FF", "COLOR_RGB": "0,255,0"}, "geometry": {"type": "MultiPolygon", "coordinates": [[[[-100.296045, 26.01756, 0.0], [-100.295153, 26.017796, 0.0], [-100.295035, 26.017432, 0.0], [-100.295927, 26.017196, 0.0], [-100.296045, 26.01756, 0.0]]]]}}, {"type": "Feature", "properties": {"ID": "13", "NOMENCALTURA": "SNL-SLV-011-6", "ESTATUS 1": "L", "NOMBRE DE PROPIETARIO": "MONICA ALEJANDRA GUADALUPE BOTELLO FERNANDEZ", "COLOR": "#00FF00", "COLOR_RGBA": "#00FF00FF", "COLOR_RGB": "0,255,0"}, "geometry": {"type": "MultiPolygon", "coordinates": [[[[-100.295458, 26.015749, 0.0], [-100.295576, 26.016113, 0.0], [-100.294878, 26.016297, 0.0], [-100.294761, 26.015933, 0.0], [-100.295458, 26.015749, 0.0]]]]}}, {"type": "Feature", "properties": {"ID": "12", "NOMENCALTURA": "SNL-SLV-011-5", "ESTATUS 1": "L", "NOMBRE DE PROPIETARIO": "MONICA ALEJANDRA GUADALUPE BOTELLO FERNANDEZ", "COLOR": "#00FF00", "COLOR_RGBA": "#00FF00FF", "COLOR_RGB": "0,255,0"}, "geometry": {"type": "MultiPolygon", "coordinates": [[[[-100.295458, 26.015749, 0.0], [-100.294761, 26.015933, 0.0], [-100.294646, 26.015578, 0.0], [-100.295343, 26.015394, 0.0], [-100.295458, 26.015749, 0.0]]]]}}, {"type": "Feature", "properties": {"ID": "11", "NOMENCALTURA": "SNL-SLV-011-4", "ESTATUS 1": "L", "NOMBRE DE PROPIETARIO": "MONICA ALEJANDRA GUADALUPE BOTELLO FERNANDEZ", "COLOR": "#00FF00", "COLOR_RGBA": "#00FF00FF", "COLOR_RGB": "0,255,0"}, "geometry": {"type": "MultiPolygon", "coordinates": [[[[-100.295343, 26.015394, 0.0], [-100.294646, 26.015578, 0.0], [-100.294528, 26.015214, 0.0], [-100.295225, 26.01503, 0.0], [-100.295343, 26.015394, 0.0]]]]}}, {"type": "Feature", "properties": {"ID": "10", "NOMENCALTURA": "SNL-SLV-011-3", "ESTATUS 1": "L", "NOMBRE DE PROPIETARIO": "MONICA ALEJANDRA GUADALUPE BOTELLO FERNANDEZ", "COLOR": "#00FF00", "COLOR_RGBA": "#00FF00FF", "COLOR_RGB": "0,255,0"}, "geometry": {"type": "MultiPolygon", "coordinates": [[[[-100.294528, 26.015214, 0.0], [-100.294415, 26.014868, 0.0], [-100.295113, 26.014683, 0.0], [-100.295225, 26.01503, 0.0], [-100.294528, 26.015214, 0.0]]]]}}, {"type": "Feature", "properties": {"ID": "9", "NOMENCALTURA": "SNL-SLV-011-2", "ESTATUS 1": "L", "NOMBRE DE PROPIETARIO": "MONICA ALEJANDRA GUADALUPE BOTELLO FERNANDEZ", "COLOR": "#00FF00", "COLOR_RGBA": "#00FF00FF", "COLOR_RGB": "0,255,0"}, "geometry": {"type": "MultiPolygon", "coordinates": [[[[-100.295113, 26.014683, 0.0], [-100.294415, 26.014868, 0.0], [-100.294303, 26.014521, 0.0], [-100.295001, 26.014337, 0.0], [-100.295113, 26.014683, 0.0]]]]}}, {"type": "Feature", "properties": {"ID": "19", "NOMENCALTURA": "SNL-SLV-011-12", "ESTATUS 1": "L", "NOMBRE DE PROPIETARIO": "MONICA ALEJANDRA GUADALUPE BOTELLO FERNANDEZ", "COLOR": "#00FF00", "COLOR_RGBA": "#00FF00FF", "COLOR_RGB": "0,255,0"}, "geometry": {"type": "MultiPolygon", "coordinates": [[[[-100.295268, 26.018151, 0.0], [-100.29616, 26.017915, 0.0], [-100.296277, 26.018279, 0.0], [-100.29551, 26.018482, 0.0], [-100.29551, 26.018482, 0.0], [-100.295386, 26.018515, 0.0], [-100.295268, 26.018151, 0.0]]]]}}, {"type": "Feature", "properties": {"ID": "20", "NOMENCALTURA": "SNL-SLV-011-13", "ESTATUS 1": "L", "NOMBRE DE PROPIETARIO": "MONICA ALEJANDRA GUADALUPE BOTELLO FERNANDEZ", "COLOR": "#00FF00", "COLOR_RGBA": "#00FF00FF", "COLOR_RGB": "0,255,0"}, "geometry": {"type": "MultiPolygon", "coordinates": [[[[-100.29551, 26.018482, 0.0], [-100.296277, 26.018279, 0.0], [-100.29639, 26.018626, 0.0], [-100.295623, 26.018828, 0.0], [-100.29551, 26.018482, 0.0]]]]}}, {"type": "Feature", "properties": {"ID": "21", "NOMENCALTURA": "SNL-SLV-011-14", "ESTATUS 1": "L", "NOMBRE DE PROPIETARIO": "MONICA ALEJANDRA GUADALUPE BOTELLO FERNANDEZ", "COLOR": "#00FF00", "COLOR_RGBA": "#00FF00FF", "COLOR_RGB": "0,255,0"}, "geometry": {"type": "MultiPolygon", "coordinates": [[[[-100.295623, 26.018828, 0.0], [-100.29639, 26.018626, 0.0], [-100.296502, 26.018972, 0.0], [-100.295735, 26.019175, 0.0], [-100.295644, 26.018896, 0.0], [-100.295623, 26.018828, 0.0]]]]}}, {"type": "Feature", "properties": {"ID": "22", "NOMENCALTURA": "SNL-SLV-011-15", "ESTATUS 1": "L", "NOMBRE DE PROPIETARIO": "MONICA ALEJANDRA GUADALUPE BOTELLO FERNANDEZ", "COLOR": "#00FF00", "COLOR_RGBA": "#00FF00FF", "COLOR_RGB": "0,255,0"}, "geometry": {"type": "MultiPolygon", "coordinates": [[[[-100.295735, 26.019175, 0.0], [-100.296502, 26.018972, 0.0], [-100.296647, 26.019419, 0.0], [-100.296709, 26.01961, 0.0], [-100.296341, 26.019676, 0.0], [-100.295921, 26.019751, 0.0], [-100.295859, 26.01956, 0.0], [-100.295735, 26.019175, 0.0]]]]}}, {"type": "Feature", "properties": {"ID": "29", "NOMENCALTURA": "SNL-SLV-012", "ESTATUS 1": "L", "NOMBRE DE PROPIETARIO": "TSIM INTERNACIONAL S.A. DE C.V.", "COLOR": "#00FF00", "COLOR_RGBA": "#00FF00FF", "COLOR_RGB": "0,255,0"}, "geometry": {"type": "MultiPolygon", "coordinates": [[[[-100.296709, 26.01961, 0.0], [-100.296709, 26.01961, 0.0], [-100.296875, 26.01958, 0.0], [-100.296901, 26.019677, 0.0], [-100.297322, 26.02093, 0.0], [-100.297375, 26.021088, 0.0], [-100.297476, 26.021403, 0.0], [-100.297549, 26.021617, 0.0], [-100.297559, 26.021654, 0.0], [-100.297657, 26.021955, 0.0], [-100.297989, 26.022982, 0.0], [-100.298362, 26.024132, 0.0], [-100.298339, 26.024212, 0.0], [-100.290414, 26.025277, 0.0], [-100.29037, 26.024789, 0.0], [-100.290156, 26.02451, 0.0], [-100.290023, 26.024448, 0.0], [-100.289908, 26.024317, 0.0], [-100.289824, 26.024276, 0.0], [-100.289464, 26.023949, 0.0], [-100.289291, 26.023814, 0.0], [-100.289056, 26.02354, 0.0], [-100.288942, 26.0234, 0.0], [-100.289504, 26.023276, 0.0], [-100.290047, 26.023148, 0.0], [-100.290616, 26.022963, 0.0], [-100.290872, 26.022913, 0.0], [-100.291469, 26.022832, 0.0], [-100.291979, 26.022492, 0.0], [-100.292318, 26.022238, 0.0], [-100.292199, 26.021904, 0.0], [-100.292103, 26.021647, 0.0], [-100.291959, 26.021481, 0.0], [-100.291797, 26.021317, 0.0], [-100.291855, 26.020945, 0.0], [-100.291613, 26.020541, 0.0], [-100.291625, 26.020065, 0.0], [-100.291613, 26.018901, 0.0], [-100.291332, 26.017534, 0.0], [-100.292539, 26.017323, 0.0], [-100.295588, 26.019811, 0.0], [-100.296341, 26.019676, 0.0], [-100.296709, 26.01961, 0.0]]]]}}, {"type": "Feature", "properties": {"ID": "32", "NOMENCALTURA": "SNL-SLV-015", "ESTATUS 1": "L", "NOMBRE DE PROPIETARIO": "SYLVIA VILLAREAL GUTIERREZ", "COLOR": "#00FF00", "COLOR_RGBA": "#00FF00FF", "COLOR_RGB": "0,255,0"}, "geometry": {"type": "MultiPolygon", "coordinates": [[[[-100.301089, 26.033058, 0.0], [-100.301089, 26.033058, 0.0], [-100.301134, 26.033508, 0.0], [-100.301184, 26.034179, 0.0], [-100.30119, 26.034397, 0.0], [-100.301124, 26.035295, 0.0], [-100.300929, 26.036183, 0.0], [-100.300689, 26.03613, 0.0], [-100.299568, 26.035181, 0.0], [-100.299418, 26.035133, 0.0], [-100.299157, 26.035001, 0.0], [-100.298879, 26.034777, 0.0], [-100.298314, 26.034127, 0.0], [-100.299596, 26.033618, 0.0], [-100.300392, 26.03331, 0.0], [-100.301089, 26.033058, 0.0]]]]}}, {"type": "Feature", "properties": {"ID": "31", "NOMENCALTURA": "SNL-SLV-014", "ESTATUS 1": "L", "NOMBRE DE PROPIETARIO": "SYLVIA VILLAREAL GUTIERREZ ", "COLOR": "#00FF00", "COLOR_RGBA": "#00FF00FF", "COLOR_RGB": "0,255,0"}, "geometry": {"type": "MultiPolygon", "coordinates": [[[[-100.301089, 26.033058, 0.0], [-100.300392, 26.03331, 0.0], [-100.299596, 26.033618, 0.0], [-100.298314, 26.034127, 0.0], [-100.297767, 26.033196, 0.0], [-100.297034, 26.032566, 0.0], [-100.296206, 26.031651, 0.0], [-100.295962, 26.031127, 0.0], [-100.295706, 26.030618, 0.0], [-100.299014, 26.028895, 0.0], [-100.299772, 26.028498, 0.0], [-100.300116, 26.029613, 0.0], [-100.300401, 26.030476, 0.0], [-100.300662, 26.031302, 0.0], [-100.300977, 26.032414, 0.0], [-100.301089, 26.033058, 0.0]]]]}}, {"type": "Feature", "properties": {"ID": "33", "NOMENCALTURA": "SNL-SLV-016-RE", "ESTATUS 1": "L", "NOMBRE DE PROPIETARIO": "MARTIN ALFONSO GUTIERREZ ESCAMILLA", "COLOR": "#00FF00", "COLOR_RGBA": "#00FF00FF", "COLOR_RGB": "0,255,0"}, "geometry": {"type": "MultiPolygon", "coordinates": [[[[-100.298079, 26.039987, 0.0], [-100.298059, 26.03997, 0.0], [-100.298008, 26.039929, 0.0], [-100.297807, 26.039767, 0.0], [-100.297769, 26.039736, 0.0], [-100.297493, 26.039512, 0.0], [-100.29735, 26.039395, 0.0], [-100.297227, 26.039294, 0.0], [-100.296829, 26.038967, 0.0], [-100.296455, 26.038664, 0.0], [-100.296363, 26.038589, 0.0], [-100.296251, 26.038498, 0.0], [-100.296102, 26.038377, 0.0], [-100.29551, 26.037897, 0.0], [-100.294921, 26.037484, 0.0], [-100.294702, 26.03733, 0.0], [-100.293714, 26.036632, 0.0], [-100.293579, 26.036537, 0.0], [-100.293169, 26.036246, 0.0], [-100.293112, 26.035704, 0.0], [-100.295043, 26.033755, 0.0], [-100.296352, 26.032563, 0.0], [-100.296656, 26.032927, 0.0], [-100.297365, 26.033782, 0.0], [-100.297643, 26.034116, 0.0], [-100.297802, 26.034297, 0.0], [-100.297944, 26.034491, 0.0], [-100.298089, 26.034667, 0.0], [-100.298317, 26.034951, 0.0], [-100.298433, 26.035094, 0.0], [-100.298532, 26.035234, 0.0], [-100.29869, 26.03541, 0.0], [-100.299024, 26.035665, 0.0], [-100.299313, 26.035874, 0.0], [-100.299432, 26.035946, 0.0], [-100.299641, 26.035985, 0.0], [-100.300431, 26.036697, 0.0], [-100.300844, 26.037061, 0.0], [-100.300839, 26.037569, 0.0], [-100.30078, 26.038339, 0.0], [-100.300701, 26.039123, 0.0], [-100.300689, 26.039127, 0.0], [-100.298079, 26.039987, 0.0]]]]}}, {"type": "Feature", "properties": {"ID": "34", "NOMENCALTURA": "SNL-SLV-017", "ESTATUS 1": "L", "NOMBRE DE PROPIETARIO": "MARTIN ALFONSO GUTIERREZ ESCAMILLA", "COLOR": "#00FF00", "COLOR_RGBA": "#00FF00FF", "COLOR_RGB": "0,255,0"}, "geometry": {"type": "MultiPolygon", "coordinates": [[[[-100.298079, 26.039987, 0.0], [-100.300689, 26.039127, 0.0], [-100.300678, 26.039237, 0.0], [-100.300672, 26.039797, 0.0], [-100.300756, 26.040666, 0.0], [-100.300762, 26.040716, 0.0], [-100.300771, 26.040832, 0.0], [-100.300777, 26.040898, 0.0], [-100.300507, 26.040961, 0.0], [-100.300153, 26.041062, 0.0], [-100.299914, 26.041123, 0.0], [-100.299783, 26.041155, 0.0], [-100.299775, 26.041157, 0.0], [-100.299731, 26.041168, 0.0], [-100.299632, 26.041187, 0.0], [-100.29956, 26.041183, 0.0], [-100.299494, 26.041159, 0.0], [-100.299405, 26.041093, 0.0], [-100.299377, 26.041071, 0.0], [-100.299369, 26.041066, 0.0], [-100.299324, 26.041031, 0.0], [-100.2993, 26.041012, 0.0], [-100.299292, 26.041005, 0.0], [-100.299186, 26.040916, 0.0], [-100.29918, 26.040911, 0.0], [-100.299114, 26.040855, 0.0], [-100.29899, 26.040751, 0.0], [-100.298972, 26.040735, 0.0], [-100.298697, 26.040505, 0.0], [-100.298661, 26.040475, 0.0], [-100.298079, 26.039987, 0.0]]]]}}, {"type": "Feature", "properties": {"ID": "35", "NOMENCALTURA": "SNL-SLV-017-1-RE", "ESTATUS 1": "L", "NOMBRE DE PROPIETARIO": "MARTIN ALFONSO GUTIERREZ ESCAMILLA", "COLOR": "#00FF00", "COLOR_RGBA": "#00FF00FF", "COLOR_RGB": "0,255,0"}, "geometry": {"type": "MultiPolygon", "coordinates": [[[[-100.29196, 26.055126, 0.0], [-100.291619, 26.05495, 0.0], [-100.291304, 26.05478, 0.0], [-100.299717, 26.04125, 0.0], [-100.300652, 26.041011, 0.0], [-100.300705, 26.041331, 0.0], [-100.301178, 26.044254, 0.0], [-100.29196, 26.055126, 0.0]]]]}}, {"type": "Feature", "properties": {"ID": "36", "NOMENCALTURA": "SNL-SLV-017-2-RE", "ESTATUS 1": "L", "NOMBRE DE PROPIETARIO": "MARTIN ALFONSO GUTIERREZ ESCAMILLA", "COLOR": "#00FF00", "COLOR_RGBA": "#00FF00FF", "COLOR_RGB": "0,255,0"}, "geometry": {"type": "MultiPolygon", "coordinates": [[[[-100.29196, 26.055126, 0.0], [-100.301178, 26.044254, 0.0], [-100.301544, 26.046531, 0.0], [-100.292279, 26.055322, 0.0], [-100.29196, 26.055126, 0.0]]]]}}, {"type": "Feature", "properties": {"ID": "37", "NOMENCALTURA": "SNL-SLV-018-RE", "ESTATUS 1": "L", "NOMBRE DE PROPIETARIO": "MARTIN ALFONSO GUTIERREZ ESCAMILLA", "COLOR": "#00FF00", "COLOR_RGBA": "#00FF00FF", "COLOR_RGB": "0,255,0"}, "geometry": {"type": "MultiPolygon", "coordinates": [[[[-100.292916, 26.055662, 0.0], [-100.292279, 26.055322, 0.0], [-100.30172, 26.046364, 0.0], [-100.301969, 26.047687, 0.0], [-100.301941, 26.047712, 0.0], [-100.292916, 26.055662, 0.0]]]]}}, {"type": "Feature", "properties": {"ID": "38", "NOMENCALTURA": "SNL-SLV-019", "ESTATUS 1": "L", "NOMBRE DE PROPIETARIO": "MARTIN ALFONSO GUTIERREZ ESCAMILLA", "COLOR": "#00FF00", "COLOR_RGBA": "#00FF00FF", "COLOR_RGB": "0,255,0"}, "geometry": {"type": "MultiPolygon", "coordinates": [[[[-100.292916, 26.055662, 0.0], [-100.301941, 26.047712, 0.0], [-100.301978, 26.047928, 0.0], [-100.302009, 26.048108, 0.0], [-100.302083, 26.048553, 0.0], [-100.302131, 26.04884, 0.0], [-100.293519, 26.055983, 0.0], [-100.292916, 26.055662, 0.0]]]]}}, {"type": "Feature", "properties": {"ID": "43", "NOMENCALTURA": "SNL-SLV-023-1-GS", "ESTATUS 1": "L", "NOMBRE DE PROPIETARIO": "MARTIN ALFONSO GUITERREZ ESCAMILLA", "COLOR": "#00FF00", "COLOR_RGBA": "#00FF00FF", "COLOR_RGB": "0,255,0"}, "geometry": {"type": "MultiPolygon", "coordinates": [[[[-100.295229, 26.056932, 0.0], [-100.302481, 26.052276, 0.0], [-100.302588, 26.052854, 0.0], [-100.296189, 26.057351, 0.0], [-100.295229, 26.056932, 0.0]]]]}}, {"type": "Feature", "properties": {"ID": "42", "NOMENCALTURA": "SNL-SLV-023", "ESTATUS 1": "L", "NOMBRE DE PROPIETARIO": "MARTIN ALFONSO GUTIERREZ ESCAMILLA", "COLOR": "#00FF00", "COLOR_RGBA": "#00FF00FF", "COLOR_RGB": "0,255,0"}, "geometry": {"type": "MultiPolygon", "coordinates": [[[[-100.302481, 26.052276, 0.0], [-100.295229, 26.056932, 0.0], [-100.294797, 26.056677, 0.0], [-100.302361, 26.051687, 0.0], [-100.302511, 26.052257, 0.0], [-100.302481, 26.052276, 0.0]]]]}}, {"type": "Feature", "properties": {"ID": "47", "NOMENCALTURA": "SNL-SLV-027-RE", "ESTATUS 1": "L", "NOMBRE DE PROPIETARIO": "ALFONSO GUTIERREZ ELIZONDO", "COLOR": "#00FF00", "COLOR_RGBA": "#00FF00FF", "COLOR_RGB": "0,255,0"}, "geometry": {"type": "MultiPolygon", "coordinates": [[[[-100.298186, 26.058402, 0.0], [-100.298048, 26.058335, 0.0], [-100.297972, 26.058292, 0.0], [-100.29752, 26.058072, 0.0], [-100.302882, 26.054456, 0.0], [-100.302979, 26.055013, 0.0], [-100.303003, 26.055153, 0.0], [-100.301061, 26.056463, 0.0], [-100.298186, 26.058402, 0.0]]]]}}, {"type": "Feature", "properties": {"ID": "48", "NOMENCALTURA": "SNL-SLV-028-RE", "ESTATUS 1": "L", "NOMBRE DE PROPIETARIO": "MARTIN ALFONSO GUTIERREZ ELIZONDO", "COLOR": "#00FF00", "COLOR_RGBA": "#00FF00FF", "COLOR_RGB": "0,255,0"}, "geometry": {"type": "MultiPolygon", "coordinates": [[[[-100.298186, 26.058402, 0.0], [-100.29821, 26.058386, 0.0], [-100.301061, 26.056463, 0.0], [-100.30319, 26.055027, 0.0], [-100.303218, 26.055458, 0.0], [-100.301512, 26.056735, 0.0], [-100.301513, 26.056747, 0.0], [-100.30173, 26.058049, 0.0], [-100.301925, 26.059207, 0.0], [-100.300222, 26.060192, 0.0], [-100.299779, 26.059483, 0.0], [-100.299439, 26.059026, 0.0], [-100.298863, 26.058735, 0.0], [-100.298186, 26.058402, 0.0]]]]}}, {"type": "Feature", "properties": {"ID": "46", "NOMENCALTURA": "SNL-SLV-026-RE", "ESTATUS 1": "L", "NOMBRE DE PROPIETARIO": "ALFONSO GUTIERREZ ELIZONDO", "COLOR": "#00FF00", "COLOR_RGBA": "#00FF00FF", "COLOR_RGB": "0,255,0"}, "geometry": {"type": "MultiPolygon", "coordinates": [[[[-100.302882, 26.054456, 0.0], [-100.29752, 26.058072, 0.0], [-100.297003, 26.057802, 0.0], [-100.296615, 26.057587, 0.0], [-100.302723, 26.053571, 0.0], [-100.302825, 26.05413, 0.0], [-100.302882, 26.054456, 0.0]]]]}}, {"type": "Feature", "properties": {"ID": "45", "NOMENCALTURA": "SNL-SLV-025", "ESTATUS 1": "L", "NOMBRE DE PROPIETARIO": "GALINDO LORENZO", "COLOR": "#00FF00", "COLOR_RGBA": "#00FF00FF", "COLOR_RGB": "0,255,0"}, "geometry": {"type": "MultiPolygon", "coordinates": [[[[-100.302723, 26.053571, 0.0], [-100.296615, 26.057587, 0.0], [-100.296394, 26.057465, 0.0], [-100.302658, 26.053214, 0.0], [-100.302723, 26.053571, 0.0]]]]}}, {"type": "Feature", "properties": {"ID": "39", "NOMENCALTURA": "SNL-SLV-020", "ESTATUS 1": "L", "NOMBRE DE PROPIETARIO": "JORGE HUMBERTO LOYA RAMIREZ", "COLOR": "#00FF00", "COLOR_RGBA": "#00FF00FF", "COLOR_RGB": "0,255,0"}, "geometry": {"type": "MultiPolygon", "coordinates": [[[[-100.293519, 26.055983, 0.0], [-100.302131, 26.04884, 0.0], [-100.302135, 26.048837, 0.0], [-100.302432, 26.050608, 0.0], [-100.294337, 26.056419, 0.0], [-100.293519, 26.055983, 0.0]]]]}}, {"type": "Feature", "properties": {"ID": "40", "NOMENCALTURA": "SNL-SLV-021", "ESTATUS 1": "L", "NOMBRE DE PROPIETARIO": "JORGE HUMBERTO LOYA RAMIREZ", "COLOR": "#00FF00", "COLOR_RGBA": "#00FF00FF", "COLOR_RGB": "0,255,0"}, "geometry": {"type": "MultiPolygon", "coordinates": [[[[-100.294337, 26.056419, 0.0], [-100.302432, 26.050608, 0.0], [-100.302489, 26.050947, 0.0], [-100.294492, 26.056501, 0.0], [-100.294337, 26.056419, 0.0]]]]}}, {"type": "Feature", "properties": {"ID": "41", "NOMENCALTURA": "SNL-SLV-022", "ESTATUS 1": "L", "NOMBRE DE PROPIETARIO": "JORGE HUMBERTO LOYA RAMIREZ", "COLOR": "#00FF00", "COLOR_RGBA": "#00FF00FF", "COLOR_RGB": "0,255,0"}, "geometry": {"type": "MultiPolygon", "coordinates": [[[[-100.294492, 26.056501, 0.0], [-100.302489, 26.050947, 0.0], [-100.302584, 26.051516, 0.0], [-100.294793, 26.056662, 0.0], [-100.294492, 26.056501, 0.0]]]]}}, {"type": "Feature", "properties": {"ID": "44", "NOMENCALTURA": "SNL-SLV-024", "ESTATUS 1": "L", "NOMBRE DE PROPIETARIO": "GALINDO LORENZO", "COLOR": "#00FF00", "COLOR_RGBA": "#00FF00FF", "COLOR_RGB": "0,255,0"}, "geometry": {"type": "MultiPolygon", "coordinates": [[[[-100.296189, 26.057351, 0.0], [-100.302588, 26.052854, 0.0], [-100.302591, 26.052852, 0.0], [-100.302658, 26.053214, 0.0], [-100.296394, 26.057465, 0.0], [-100.296189, 26.057351, 0.0]]]]}}, {"type": "Feature", "properties": {"ID": "51", "NOMENCALTURA": "SNL-SLV-031", "ESTATUS 1": "NG", "NOMBRE DE PROPIETARIO": "OBED CANTU GONZALEZ", "COLOR": "#FFFF00", "COLOR_RGBA": "#FFFF00FF", "COLOR_RGB": "255,255,0"}, "geometry": {"type": "MultiPolygon", "coordinates": [[[[-100.304881, 26.066583, 0.0], [-100.30342, 26.064705, 0.0], [-100.304246, 26.064283, 0.0], [-100.305075, 26.063859, 0.0], [-100.305943, 26.065919, 0.0], [-100.305412, 26.066309, 0.0], [-100.304881, 26.066583, 0.0]]]]}}, {"type": "Feature", "properties": {"ID": "56", "NOMENCALTURA": "SNL-VM-P25", "ESTATUS 1": "NL", "NOMBRE DE PROPIETARIO": "PARCELA ESCOLAR (ZN-1 P-25)", "COLOR": "#FF0000", "COLOR_RGBA": "#FF0000FF", "COLOR_RGB": "255,0,0"}, "geometry": {"type": "MultiPolygon", "coordinates": [[[[-100.310311, 26.086136, 0.0], [-100.310311, 26.086136, 0.0], [-100.313071, 26.08405, 0.0], [-100.313734, 26.085731, 0.0], [-100.310013, 26.087977, 0.0], [-100.310311, 26.086136, 0.0]]]]}}, {"type": "Feature", "properties": {"ID": "57", "NOMENCALTURA": "SNL-SLV-036", "ESTATUS 1": "NL", "NOMBRE DE PROPIETARIO": "TRANSPARQUE INTERPUERTO S.A. DE C.V (ZN-1 P24 LOTE 2)", "COLOR": "#FF0000", "COLOR_RGBA": "#FF0000FF", "COLOR_RGB": "255,0,0"}, "geometry": {"type": "MultiPolygon", "coordinates": [[[[-100.310013, 26.087977, 0.0], [-100.313734, 26.085731, 0.0], [-100.314416, 26.087459, 0.0], [-100.310436, 26.089508, 0.0], [-100.310012, 26.088546, 0.0], [-100.309983, 26.088261, 0.0], [-100.309983, 26.088261, 0.0], [-100.309983, 26.088261, 0.0], [-100.310013, 26.087977, 0.0], [-100.310013, 26.087977, 0.0]]]]}}, {"type": "Feature", "properties": {"ID": "55", "NOMENCALTURA": "SNL-SLV-035", "ESTATUS 1": "L", "NOMBRE DE PROPIETARIO": "GP BIENES INMUBLES S.A. DE C.V (ZN-1 P-26)", "COLOR": "#00FF00", "COLOR_RGBA": "#00FF00FF", "COLOR_RGB": "0,255,0"}, "geometry": {"type": "MultiPolygon", "coordinates": [[[[-100.313071, 26.08405, 0.0], [-100.310311, 26.086136, 0.0], [-100.310769, 26.08274, 0.0], [-100.310769, 26.08274, 0.0], [-100.310265, 26.082739, 0.0], [-100.311102, 26.080342, 0.0], [-100.311573, 26.08025, 0.0], [-100.311573, 26.08025, 0.0], [-100.313071, 26.08405, 0.0]]]]}}, {"type": "Feature", "properties": {"ID": "60", "NOMENCALTURA": "SNL-VM-P22", "ESTATUS 1": "NL", "NOMBRE DE PROPIETARIO": "HILARIO RODRIGUEZ EZQUIVEL", "COLOR": "#FF0000", "COLOR_RGBA": "#FF0000FF", "COLOR_RGB": "255,0,0"}, "geometry": {"type": "MultiPolygon", "coordinates": [[[[-100.314637, 26.093484, 0.0], [-100.312448, 26.09404, 0.0], [-100.311652, 26.092264, 0.0], [-100.315508, 26.090228, 0.0], [-100.316594, 26.092982, 0.0], [-100.314637, 26.093484, 0.0]]]]}}, {"type": "Feature", "properties": {"ID": "61", "NOMENCALTURA": "SNL-SLV-039", "ESTATUS 1": "L", "NOMBRE DE PROPIETARIO": "GP BIENES INMUBLES S.A. DE C.V (ZN-1 P-20)", "COLOR": "#00FF00", "COLOR_RGBA": "#00FF00FF", "COLOR_RGB": "0,255,0"}, "geometry": {"type": "MultiPolygon", "coordinates": [[[[-100.314637, 26.093484, 0.0], [-100.316594, 26.092982, 0.0], [-100.317176, 26.094459, 0.0], [-100.315375, 26.095222, 0.0], [-100.314637, 26.093484, 0.0]]]]}}, {"type": "Feature", "properties": {"ID": "59", "NOMENCALTURA": "SNL-SLV-038", "ESTATUS 1": "L", "NOMBRE DE PROPIETARIO": "GP BIENES INMUEBLE S.A. DE C.V. (ZN-1 P-23)", "COLOR": "#00FF00", "COLOR_RGBA": "#00FF00FF", "COLOR_RGB": "0,255,0"}, "geometry": {"type": "MultiPolygon", "coordinates": [[[[-100.315508, 26.090228, 0.0], [-100.311652, 26.092264, 0.0], [-100.311045, 26.092575, 0.0], [-100.310192, 26.090654, 0.0], [-100.310804, 26.090341, 0.0], [-100.310804, 26.090341, 0.0], [-100.310804, 26.090341, 0.0], [-100.314751, 26.08831, 0.0], [-100.315508, 26.090228, 0.0]]]]}}, {"type": "Feature", "properties": {"ID": "63", "NOMENCALTURA": "SNL-SLV-040", "ESTATUS 1": "L", "NOMBRE DE PROPIETARIO": "GP BIENES INMUEBLES S.A. DE C.V (ZN-1 P-15)", "COLOR": "#00FF00", "COLOR_RGBA": "#00FF00FF", "COLOR_RGB": "0,255,0"}, "geometry": {"type": "MultiPolygon", "coordinates": [[[[-100.31588, 26.096711, 0.0], [-100.317719, 26.095834, 0.0], [-100.318405, 26.097574, 0.0], [-100.316552, 26.098339, 0.0], [-100.31588, 26.096711, 0.0]]]]}}, {"type": "Feature", "properties": {"ID": "62", "NOMENCALTURA": "SNL-VM-P18", "ESTATUS 1": "NL", "NOMBRE DE PROPIETARIO": "VICTOR MARTIN CONTRERAS PEREZ (ZN-1 P-18)", "COLOR": "#FF0000", "COLOR_RGBA": "#FF0000FF", "COLOR_RGB": "255,0,0"}, "geometry": {"type": "MultiPolygon", "coordinates": [[[[-100.317719, 26.095834, 0.0], [-100.31588, 26.096711, 0.0], [-100.315407, 26.095305, 0.0], [-100.315375, 26.095222, 0.0], [-100.317176, 26.094459, 0.0], [-100.317719, 26.095834, 0.0]]]]}}, {"type": "Feature", "properties": {"ID": "65", "NOMENCALTURA": "SNL-SLV-042", "ESTATUS 1": "L", "NOMBRE DE PROPIETARIO": "GP INMUEBLES S.A. DE C.V. (ZN-1 P-6)", "COLOR": "#00FF00", "COLOR_RGBA": "#00FF00FF", "COLOR_RGB": "0,255,0"}, "geometry": {"type": "MultiPolygon", "coordinates": [[[[-100.319179, 26.099534, 0.0], [-100.320544, 26.102996, 0.0], [-100.318418, 26.10382, 0.0], [-100.317819, 26.101873, 0.0], [-100.317337, 26.100269, 0.0], [-100.319179, 26.099534, 0.0]]]]}}, {"type": "Feature", "properties": {"ID": "64", "NOMENCALTURA": "SNL-SLV-041", "ESTATUS 1": "L", "NOMBRE DE PROPIETARIO": "GP INMUEBLES S.A. DE C.V. (ZN-1 P-12)", "COLOR": "#00FF00", "COLOR_RGBA": "#00FF00FF", "COLOR_RGB": "0,255,0"}, "geometry": {"type": "MultiPolygon", "coordinates": [[[[-100.319179, 26.099534, 0.0], [-100.317337, 26.100269, 0.0], [-100.317297, 26.100169, 0.0], [-100.316552, 26.098339, 0.0], [-100.318405, 26.097574, 0.0], [-100.319179, 26.099534, 0.0]]]]}}, {"type": "Feature", "properties": {"ID": "66", "NOMENCALTURA": "SNL-SLV-043", "ESTATUS 1": "NL", "NOMBRE DE PROPIETARIO": "CESAR GONZALEZ CANTU (OSA)", "COLOR": "#FF0000", "COLOR_RGBA": "#FF0000FF", "COLOR_RGB": "255,0,0"}, "geometry": {"type": "MultiPolygon", "coordinates": [[[[-100.312958, 26.105935, 0.0], [-100.314889, 26.105187, 0.0], [-100.318419, 26.10382, 0.0], [-100.320545, 26.102996, 0.0], [-100.32057, 26.102986, 0.0], [-100.320972, 26.103965, 0.0], [-100.320974, 26.10397, 0.0], [-100.321041, 26.10414, 0.0], [-100.321108, 26.104309, 0.0], [-100.321178, 26.104486, 0.0], [-100.321245, 26.104657, 0.0], [-100.321314, 26.104831, 0.0], [-100.321379, 26.104997, 0.0], [-100.321443, 26.105161, 0.0], [-100.321509, 26.10533, 0.0], [-100.321576, 26.105505, 0.0], [-100.321638, 26.10567, 0.0], [-100.321703, 26.105851, 0.0], [-100.321761, 26.106016, 0.0], [-100.321789, 26.106098, 0.0], [-100.321819, 26.106191, 0.0], [-100.321874, 26.106367, 0.0], [-100.321925, 26.106539, 0.0], [-100.321968, 26.106699, 0.0], [-100.304188, 26.111261, 0.0], [-100.304168, 26.111266, 0.0], [-100.304155, 26.111232, 0.0], [-100.303695, 26.110105, 0.0], [-100.30349, 26.109602, 0.0], [-100.303508, 26.109595, 0.0], [-100.312958, 26.105935, 0.0]]]]}}, {"type": "Feature", "properties": {"ID": "68", "NOMENCALTURA": "SNL-SLV-045", "ESTATUS 1": "NG", "NOMBRE DE PROPIETARIO": "JESUS LUIS BARRERA LOZANO (RANCHO MAMULIQUE)", "COLOR": "#FFFF00", "COLOR_RGBA": "#FFFF00FF", "COLOR_RGB": "255,255,0"}, "geometry": {"type": "MultiPolygon", "coordinates": [[[[-100.323258, 26.127038, 0.0], [-100.279914, 26.133113, 0.0], [-100.279909, 26.133114, 0.0], [-100.270197, 26.119401, 0.0], [-100.322339, 26.110362, 0.0], [-100.323258, 26.127038, 0.0]]]]}}, {"type": "Feature", "properties": {"ID": "69", "NOMENCALTURA": "SNL-SLV-046", "ESTATUS 1": "NG", "NOMBRE DE PROPIETARIO": "JESUS LUIS BARRERA LOZANO (RANCHO MAMULIQUE)", "COLOR": "#FFFF00", "COLOR_RGBA": "#FFFF00FF", "COLOR_RGB": "255,255,0"}, "geometry": {"type": "MultiPolygon", "coordinates": [[[[-100.279914, 26.133113, 0.0], [-100.323258, 26.127038, 0.0], [-100.323207, 26.127699, 0.0], [-100.323457, 26.128128, 0.0], [-100.323636, 26.128615, 0.0], [-100.326831, 26.135448, 0.0], [-100.330709, 26.143742, 0.0], [-100.290243, 26.151048, 0.0], [-100.290265, 26.151114, 0.0], [-100.290258, 26.151116, 0.0], [-100.279914, 26.133113, 0.0]]]]}}, {"type": "Feature", "properties": {"ID": "70", "NOMENCALTURA": "SNL-SLV-047", "ESTATUS 1": "NG", "NOMBRE DE PROPIETARIO": "JESUS LUIS BARRERA LOZANO (RANCHO MAMULIQUE)", "COLOR": "#FFFF00", "COLOR_RGBA": "#FFFF00FF", "COLOR_RGB": "255,255,0"}, "geometry": {"type": "MultiPolygon", "coordinates": [[[[-100.290265, 26.151114, 0.0], [-100.330709, 26.143742, 0.0], [-100.330711, 26.143752, 0.0], [-100.331526, 26.145493, 0.0], [-100.3318, 26.145966, 0.0], [-100.336926, 26.153097, 0.0], [-100.33727, 26.153644, 0.0], [-100.337598, 26.154355, 0.0], [-100.337809, 26.155139, 0.0], [-100.337885, 26.155855, 0.0], [-100.337779, 26.159426, 0.0], [-100.337848, 26.160004, 0.0], [-100.337736, 26.160032, 0.0], [-100.323674, 26.163544, 0.0], [-100.296754, 26.170263, 0.0], [-100.290265, 26.151114, 0.0]]]]}}, {"type": "Feature", "properties": {"ID": "71", "NOMENCALTURA": "SNL-SLV-048", "ESTATUS 1": "NG", "NOMBRE DE PROPIETARIO": "JESUS LUIS BARRERA LOZANO (RANCHO MAMULIQUE)", "COLOR": "#FFFF00", "COLOR_RGBA": "#FFFF00FF", "COLOR_RGB": "255,255,0"}, "geometry": {"type": "MultiPolygon", "coordinates": [[[[-100.323674, 26.163544, 0.0], [-100.337736, 26.160032, 0.0], [-100.337848, 26.160004, 0.0], [-100.337892, 26.159993, 0.0], [-100.337907, 26.160075, 0.0], [-100.337946, 26.160256, 0.0], [-100.337953, 26.160285, 0.0], [-100.337994, 26.160443, 0.0], [-100.338042, 26.160611, 0.0], [-100.338101, 26.160803, 0.0], [-100.338157, 26.160973, 0.0], [-100.338211, 26.161136, 0.0], [-100.33826, 26.161282, 0.0], [-100.338269, 26.161308, 0.0], [-100.338329, 26.161484, 0.0], [-100.338391, 26.161667, 0.0], [-100.338447, 26.161833, 0.0], [-100.338454, 26.161854, 0.0], [-100.3385, 26.16199, 0.0], [-100.338505, 26.162006, 0.0], [-100.338562, 26.162172, 0.0], [-100.338622, 26.162351, 0.0], [-100.338684, 26.162534, 0.0], [-100.338743, 26.162707, 0.0], [-100.338796, 26.162864, 0.0], [-100.338853, 26.163031, 0.0], [-100.33891, 26.163201, 0.0], [-100.33897, 26.163379, 0.0], [-100.339029, 26.163552, 0.0], [-100.339083, 26.163713, 0.0], [-100.339087, 26.163724, 0.0], [-100.339146, 26.163898, 0.0], [-100.339203, 26.164066, 0.0], [-100.339265, 26.16425, 0.0], [-100.339322, 26.164418, 0.0], [-100.339384, 26.164602, 0.0], [-100.339439, 26.164765, 0.0], [-100.3395, 26.164945, 0.0], [-100.339555, 26.165108, 0.0], [-100.339614, 26.165281, 0.0], [-100.339672, 26.165454, 0.0], [-100.339729, 26.165621, 0.0], [-100.339793, 26.16581, 0.0], [-100.339846, 26.165968, 0.0], [-100.339905, 26.166141, 0.0], [-100.339967, 26.166325, 0.0], [-100.34002, 26.166482, 0.0], [-100.340081, 26.166661, 0.0], [-100.340141, 26.166839, 0.0], [-100.340198, 26.167007, 0.0], [-100.340257, 26.16718, 0.0], [-100.340315, 26.167353, 0.0], [-100.340377, 26.167536, 0.0], [-100.34043, 26.167694, 0.0], [-100.340491, 26.167872, 0.0], [-100.340555, 26.16806, 0.0], [-100.340609, 26.168222, 0.0], [-100.340664, 26.168385, 0.0], [-100.340727, 26.168568, 0.0], [-100.340784, 26.168738, 0.0], [-100.340841, 26.168906, 0.0], [-100.340901, 26.169085, 0.0], [-100.340957, 26.169247, 0.0], [-100.341017, 26.169426, 0.0], [-100.341076, 26.169599, 0.0], [-100.341133, 26.169767, 0.0], [-100.341193, 26.169945, 0.0], [-100.341255, 26.170129, 0.0], [-100.341312, 26.170297, 0.0], [-100.341367, 26.170459, 0.0], [-100.341429, 26.170638, 0.0], [-100.341491, 26.170813, 0.0], [-100.341547, 26.170968, 0.0], [-100.341594, 26.171091, 0.0], [-100.341619, 26.171153, 0.0], [-100.341687, 26.171324, 0.0], [-100.341755, 26.171486, 0.0], [-100.341832, 26.171662, 0.0], [-100.341903, 26.171822, 0.0], [-100.341977, 26.171988, 0.0], [-100.342057, 26.172166, 0.0], [-100.342126, 26.172321, 0.0], [-100.342203, 26.172494, 0.0], [-100.342278, 26.172662, 0.0], [-100.342351, 26.172825, 0.0], [-100.342428, 26.172997, 0.0], [-100.342504, 26.173165, 0.0], [-100.342581, 26.173338, 0.0], [-100.342654, 26.173502, 0.0], [-100.342728, 26.173666, 0.0], [-100.342803, 26.173833, 0.0], [-100.342875, 26.173996, 0.0], [-100.342955, 26.174174, 0.0], [-100.343026, 26.174332, 0.0], [-100.343105, 26.174511, 0.0], [-100.343181, 26.174679, 0.0], [-100.343256, 26.174848, 0.0], [-100.343327, 26.175005, 0.0], [-100.343399, 26.175167, 0.0], [-100.343458, 26.175299, 0.0], [-100.343436, 26.175298, 0.0], [-100.343403, 26.175224, 0.0], [-100.343388, 26.175226, 0.0], [-100.340869, 26.175507, 0.0], [-100.327722, 26.176919, 0.0], [-100.327065, 26.177046, 0.0], [-100.3259, 26.177176, 0.0], [-100.325898, 26.177162, 0.0], [-100.323674, 26.163544, 0.0]]]]}}, {"type": "Feature", "properties": {"ID": "72", "NOMENCALTURA": "SNL-SLV-049", "ESTATUS 1": "NG", "NOMBRE DE PROPIETARIO": "RUBEN URRUTIA FLORES Y MARIA GUADALUPE MORALES CANTU", "COLOR": "#FFFF00", "COLOR_RGBA": "#FFFF00FF", "COLOR_RGB": "255,255,0"}, "geometry": {"type": "MultiPolygon", "coordinates": [[[[-100.325898, 26.177162, 0.0], [-100.3259, 26.177176, 0.0], [-100.327065, 26.177046, 0.0], [-100.327722, 26.176919, 0.0], [-100.340869, 26.175507, 0.0], [-100.343388, 26.175226, 0.0], [-100.344029, 26.176658, 0.0], [-100.344466, 26.177636, 0.0], [-100.345, 26.17883, 0.0], [-100.345374, 26.179667, 0.0], [-100.345709, 26.180415, 0.0], [-100.346002, 26.181073, 0.0], [-100.346297, 26.181732, 0.0], [-100.346695, 26.182621, 0.0], [-100.347147, 26.183631, 0.0], [-100.347324, 26.184025, 0.0], [-100.347594, 26.184596, 0.0], [-100.347963, 26.185263, 0.0], [-100.348164, 26.185586, 0.0], [-100.348363, 26.185891, 0.0], [-100.348795, 26.186543, 0.0], [-100.34954, 26.18766, 0.0], [-100.329215, 26.199847, 0.0], [-100.328251, 26.200424, 0.0], [-100.327074, 26.20113, 0.0], [-100.327063, 26.201137, 0.0], [-100.32706, 26.201132, 0.0], [-100.32613, 26.200696, 0.0], [-100.325539, 26.199467, 0.0], [-100.322551, 26.198439, 0.0], [-100.322277, 26.197982, 0.0], [-100.322512, 26.19771, 0.0], [-100.322579, 26.197633, 0.0], [-100.32259, 26.197619, 0.0], [-100.317803, 26.192128, 0.0], [-100.316513, 26.191397, 0.0], [-100.316166, 26.190592, 0.0], [-100.314431, 26.190289, 0.0], [-100.314155, 26.189461, 0.0], [-100.312251, 26.189268, 0.0], [-100.311078, 26.187217, 0.0], [-100.309831, 26.187428, 0.0], [-100.308465, 26.185635, 0.0], [-100.308482, 26.185616, 0.0], [-100.310467, 26.184633, 0.0], [-100.315555, 26.182156, 0.0], [-100.321446, 26.179303, 0.0], [-100.325834, 26.177172, 0.0], [-100.325898, 26.177162, 0.0]]]]}}, {"type": "Feature", "properties": {"ID": "73", "NOMENCALTURA": "SNL-SLV-050", "ESTATUS 1": "NG", "NOMBRE DE PROPIETARIO": "RUBEN URRUTIA FLORES Y MARIA GUADALUPE MORALES CANTU", "COLOR": "#FFFF00", "COLOR_RGBA": "#FFFF00FF", "COLOR_RGB": "255,255,0"}, "geometry": {"type": "MultiPolygon", "coordinates": [[[[-100.34954, 26.18766, 0.0], [-100.349551, 26.187653, 0.0], [-100.353385, 26.193411, 0.0], [-100.35431, 26.194794, 0.0], [-100.354429, 26.194963, 0.0], [-100.354555, 26.195129, 0.0], [-100.354686, 26.195291, 0.0], [-100.354824, 26.195449, 0.0], [-100.354967, 26.195602, 0.0], [-100.355115, 26.195752, 0.0], [-100.35526, 26.195886, 0.0], [-100.35541, 26.196015, 0.0], [-100.355564, 26.196139, 0.0], [-100.355724, 26.196258, 0.0], [-100.355887, 26.196372, 0.0], [-100.356098, 26.196512, 0.0], [-100.356314, 26.196647, 0.0], [-100.356615, 26.196829, 0.0], [-100.356807, 26.197876, 0.0], [-100.357013, 26.199013, 0.0], [-100.357296, 26.200556, 0.0], [-100.357534, 26.201869, 0.0], [-100.357788, 26.203277, 0.0], [-100.35798, 26.204339, 0.0], [-100.357987, 26.204376, 0.0], [-100.350373, 26.21041, 0.0], [-100.346638, 26.213367, 0.0], [-100.341877, 26.211937, 0.0], [-100.341136, 26.209905, 0.0], [-100.33899, 26.210113, 0.0], [-100.338774, 26.209177, 0.0], [-100.340149, 26.207268, 0.0], [-100.339867, 26.20648, 0.0], [-100.34006, 26.205907, 0.0], [-100.33969, 26.204482, 0.0], [-100.338665, 26.204411, 0.0], [-100.339134, 26.20206, 0.0], [-100.337348, 26.201906, 0.0], [-100.337123, 26.201683, 0.0], [-100.335361, 26.201213, 0.0], [-100.335016, 26.199734, 0.0], [-100.333914, 26.199432, 0.0], [-100.32877, 26.203462, 0.0], [-100.327074, 26.20113, 0.0], [-100.329215, 26.199847, 0.0], [-100.329261, 26.199819, 0.0], [-100.34954, 26.18766, 0.0]]]]}}, {"type": "Feature", "properties": {"ID": "74", "NOMENCALTURA": "SNL-SLV-051", "ESTATUS 1": "NG", "NOMBRE DE PROPIETARIO": "RUBEN URRUTIA FLORES Y MARIA GUADALUPE MORALES CANTU", "COLOR": "#FFFF00", "COLOR_RGBA": "#FFFF00FF", "COLOR_RGB": "255,255,0"}, "geometry": {"type": "MultiPolygon", "coordinates": [[[[-100.358344, 26.204102, 0.0], [-100.358185, 26.203221, 0.0], [-100.357931, 26.201813, 0.0], [-100.357693, 26.2005, 0.0], [-100.35741, 26.198956, 0.0], [-100.357204, 26.197819, 0.0], [-100.357073, 26.197105, 0.0], [-100.357226, 26.197197, 0.0], [-100.357406, 26.197309, 0.0], [-100.357642, 26.19746, 0.0], [-100.357814, 26.197578, 0.0], [-100.357905, 26.197643, 0.0], [-100.35813, 26.197817, 0.0], [-100.358393, 26.198046, 0.0], [-100.358673, 26.198325, 0.0], [-100.358703, 26.198359, 0.0], [-100.358767, 26.19843, 0.0], [-100.359005, 26.198725, 0.0], [-100.359117, 26.198879, 0.0], [-100.359173, 26.198963, 0.0], [-100.3594, 26.199329, 0.0], [-100.359505, 26.199521, 0.0], [-100.359585, 26.199677, 0.0], [-100.359949, 26.200393, 0.0], [-100.36084, 26.20216, 0.0], [-100.358453, 26.204017, 0.0], [-100.358344, 26.204102, 0.0]]]]}}, {"type": "Feature", "properties": {"ID": "75", "NOMENCALTURA": "SNL-SLV-052", "ESTATUS 1": "NG", "NOMBRE DE PROPIETARIO": "MARIA DEL ROSARIO GARCIA UGARTE", "COLOR": "#FFFF00", "COLOR_RGBA": "#FFFF00FF", "COLOR_RGB": "255,255,0"}, "geometry": {"type": "MultiPolygon", "coordinates": [[[[-100.358344, 26.204102, 0.0], [-100.358344, 26.204102, 0.0], [-100.358453, 26.204017, 0.0], [-100.360846, 26.202161, 0.0], [-100.365362, 26.21111, 0.0], [-100.360026, 26.213339, 0.0], [-100.358342, 26.204103, 0.0], [-100.358344, 26.204102, 0.0]]]]}}, {"type": "Feature", "properties": {"ID": "76", "NOMENCALTURA": "SNL-SLV-052-1", "ESTATUS 1": "NG", "NOMBRE DE PROPIETARIO": "MARIA ELENA GARCIA UGARTE", "COLOR": "#FFFF00", "COLOR_RGBA": "#FFFF00FF", "COLOR_RGB": "255,255,0"}, "geometry": {"type": "MultiPolygon", "coordinates": [[[[-100.360026, 26.213339, 0.0], [-100.365362, 26.21111, 0.0], [-100.367322, 26.214994, 0.0], [-100.367583, 26.215676, 0.0], [-100.367753, 26.216183, 0.0], [-100.36787, 26.216722, 0.0], [-100.367896, 26.216904, 0.0], [-100.361186, 26.219706, 0.0], [-100.360026, 26.213339, 0.0]]]]}}, {"type": "Feature", "properties": {"ID": "77", "NOMENCALTURA": "SNL-SLV-052-2", "ESTATUS 1": "NG", "NOMBRE DE PROPIETARIO": "IGANACIO GARCIA UGARTE", "COLOR": "#FFFF00", "COLOR_RGBA": "#FFFF00FF", "COLOR_RGB": "255,255,0"}, "geometry": {"type": "MultiPolygon", "coordinates": [[[[-100.361186, 26.219706, 0.0], [-100.367896, 26.216904, 0.0], [-100.368756, 26.222926, 0.0], [-100.362268, 26.225635, 0.0], [-100.361186, 26.219706, 0.0]]]]}}, {"type": "Feature", "properties": {"ID": "78", "NOMENCALTURA": "SNL-SLV-052-3", "ESTATUS 1": "NG", "NOMBRE DE PROPIETARIO": "MARIA ORALIA GARCIA UGARTE", "COLOR": "#FFFF00", "COLOR_RGBA": "#FFFF00FF", "COLOR_RGB": "255,255,0"}, "geometry": {"type": "MultiPolygon", "coordinates": [[[[-100.362268, 26.225635, 0.0], [-100.368756, 26.222926, 0.0], [-100.368757, 26.222925, 0.0], [-100.369647, 26.229161, 0.0], [-100.363387, 26.231774, 0.0], [-100.362268, 26.225635, 0.0]]]]}}, {"type": "Feature", "properties": {"ID": "79", "NOMENCALTURA": "SNL-SLV-053", "ESTATUS 1": "NG", "NOMBRE DE PROPIETARIO": "OSCAR MARIANO GARCIA UGARTE", "COLOR": "#FFFF00", "COLOR_RGBA": "#FFFF00FF", "COLOR_RGB": "255,255,0"}, "geometry": {"type": "MultiPolygon", "coordinates": [[[[-100.363387, 26.231774, 0.0], [-100.369647, 26.229161, 0.0], [-100.370571, 26.235633, 0.0], [-100.36455, 26.238147, 0.0], [-100.363387, 26.231774, 0.0]]]]}}, {"type": "Feature", "properties": {"ID": "81", "NOMENCALTURA": "SNL-SLV-055", "ESTATUS 1": "NG", "NOMBRE DE PROPIETARIO": "ALFONSO CESAR CAVAZOS TREVIÑO ", "COLOR": "#FFFF00", "COLOR_RGBA": "#FFFF00FF", "COLOR_RGB": "255,255,0"}, "geometry": {"type": "MultiPolygon", "coordinates": [[[[-100.368006, 26.25714, 0.0], [-100.366336, 26.247946, 0.0], [-100.372031, 26.246039, 0.0], [-100.37301, 26.253031, 0.0], [-100.373019, 26.253092, 0.0], [-100.37339, 26.255747, 0.0], [-100.368006, 26.25714, 0.0]]]]}}, {"type": "Feature", "properties": {"ID": "82", "NOMENCALTURA": "SNL-SLV-056", "ESTATUS 1": "NL", "NOMBRE DE PROPIETARIO": "EUGENIO BUENO BARRERA", "COLOR": "#FF0000", "COLOR_RGBA": "#FF0000FF", "COLOR_RGB": "255,0,0"}, "geometry": {"type": "MultiPolygon", "coordinates": [[[[-100.368006, 26.25714, 0.0], [-100.37339, 26.255747, 0.0], [-100.374304, 26.262283, 0.0], [-100.375424, 26.270314, 0.0], [-100.375408, 26.270316, 0.0], [-100.375408, 26.270316, 0.0], [-100.370858, 26.270969, 0.0], [-100.370047, 26.268089, 0.0], [-100.369956, 26.267794, 0.0], [-100.369311, 26.264285, 0.0], [-100.368206, 26.258241, 0.0], [-100.368006, 26.25714, 0.0]]]]}}, {"type": "Feature", "properties": {"ID": "83", "NOMENCALTURA": "SNL-SLV-056-1", "ESTATUS 1": "L", "NOMBRE DE PROPIETARIO": "CELINA CANTU ZAMBRANO ", "COLOR": "#00FF00", "COLOR_RGBA": "#00FF00FF", "COLOR_RGB": "0,255,0"}, "geometry": {"type": "MultiPolygon", "coordinates": [[[[-100.370858, 26.270969, 0.0], [-100.375408, 26.270316, 0.0], [-100.375408, 26.270316, 0.0], [-100.376299, 26.276711, 0.0], [-100.29948, 26.287721, 0.0], [-100.29629, 26.281641, 0.0], [-100.370858, 26.270969, 0.0]]]]}}, {"type": "Feature", "properties": {"ID": "86", "NOMENCALTURA": "SNL-SLV-056-7-GS", "ESTATUS 1": "L", "NOMBRE DE PROPIETARIO": "IRMA RAVIZE GONZALEZ", "COLOR": "#00FF00", "COLOR_RGBA": "#00FF00FF", "COLOR_RGB": "0,255,0"}, "geometry": {"type": "MultiPolygon", "coordinates": [[[[-100.379724, 26.300997, 0.0], [-100.379514, 26.30102, 0.0], [-100.377684, 26.294573, 0.0], [-100.37878, 26.294448, 0.0], [-100.3789, 26.295408, 0.0], [-100.379016, 26.296213, 0.0], [-100.379044, 26.296434, 0.0], [-100.37945, 26.299039, 0.0], [-100.379724, 26.300997, 0.0]]]]}}, {"type": "Feature", "properties": {"ID": "2", "NOMENCALTURA": "SNL-VIL-002", "ESTATUS 1": "NG", "NOMBRE DE PROPIETARIO": "PUENTE BUENTELLO MAURO / HUMBERTO PUENTE", "COLOR": "#FFFF00", "COLOR_RGBA": "#FFFF00FF", "COLOR_RGB": "255,255,0"}, "geometry": {"type": "MultiPolygon", "coordinates": [[[[-100.436485, 26.490437, 0.0], [-100.436102, 26.490671, 0.0], [-100.435779, 26.490137, 0.0], [-100.434651, 26.490517, 0.0], [-100.433639, 26.487454, 0.0], [-100.43441, 26.486798, 0.0], [-100.436485, 26.490437, 0.0]]]]}}, {"type": "Feature", "properties": {"ID": "4", "NOMENCALTURA": "SNL-SVIL-004-2-GS", "ESTATUS 1": "NG", "NOMBRE DE PROPIETARIO": "JUAN ANTONIO UGARTE VIEJO", "COLOR": "#FFFF00", "COLOR_RGBA": "#FFFF00FF", "COLOR_RGB": "255,255,0"}, "geometry": {"type": "MultiPolygon", "coordinates": [[[[-100.45598, 26.523774, 0.0], [-100.455256, 26.524037, 0.0], [-100.455224, 26.52399, 0.0], [-100.455173, 26.523919, 0.0], [-100.455069, 26.523767, 0.0], [-100.454851, 26.523524, 0.0], [-100.454716, 26.523366, 0.0], [-100.454587, 26.523214, 0.0], [-100.454362, 26.522899, 0.0], [-100.454168, 26.52269, 0.0], [-100.453945, 26.522471, 0.0], [-100.45379, 26.522282, 0.0], [-100.453635, 26.522125, 0.0], [-100.45344, 26.521926, 0.0], [-100.453292, 26.521758, 0.0], [-100.453121, 26.521602, 0.0], [-100.452979, 26.521449, 0.0], [-100.452826, 26.521248, 0.0], [-100.452725, 26.52113, 0.0], [-100.452619, 26.520979, 0.0], [-100.452504, 26.520826, 0.0], [-100.452401, 26.520657, 0.0], [-100.452325, 26.520508, 0.0], [-100.452254, 26.520362, 0.0], [-100.452181, 26.520199, 0.0], [-100.452115, 26.520019, 0.0], [-100.45208, 26.519815, 0.0], [-100.452002, 26.519746, 0.0], [-100.451697, 26.519634, 0.0], [-100.451372, 26.519487, 0.0], [-100.451024, 26.51937, 0.0], [-100.450681, 26.519262, 0.0], [-100.450448, 26.519187, 0.0], [-100.450163, 26.519072, 0.0], [-100.449976, 26.518959, 0.0], [-100.449774, 26.518846, 0.0], [-100.449543, 26.518678, 0.0], [-100.449379, 26.518531, 0.0], [-100.449198, 26.518303, 0.0], [-100.44907, 26.518108, 0.0], [-100.449013, 26.517972, 0.0], [-100.448942, 26.51794, 0.0], [-100.448747, 26.517718, 0.0], [-100.448531, 26.517466, 0.0], [-100.448408, 26.517293, 0.0], [-100.44817, 26.51713, 0.0], [-100.447909, 26.516966, 0.0], [-100.44781, 26.516727, 0.0], [-100.447808, 26.516702, 0.0], [-100.447748, 26.51659, 0.0], [-100.447692, 26.516534, 0.0], [-100.447572, 26.516513, 0.0], [-100.447492, 26.516483, 0.0], [-100.447416, 26.516431, 0.0], [-100.447274, 26.516453, 0.0], [-100.446978, 26.516502, 0.0], [-100.446554, 26.516565, 0.0], [-100.446475, 26.516325, 0.0], [-100.446442, 26.516262, 0.0], [-100.44636, 26.516262, 0.0], [-100.446127, 26.516349, 0.0], [-100.44609, 26.51634, 0.0], [-100.446007, 26.516271, 0.0], [-100.445576, 26.516006, 0.0], [-100.444986, 26.515666, 0.0], [-100.444564, 26.515449, 0.0], [-100.444446, 26.515389, 0.0], [-100.444346, 26.515367, 0.0], [-100.444233, 26.515389, 0.0], [-100.444126, 26.515434, 0.0], [-100.443688, 26.515139, 0.0], [-100.443337, 26.514865, 0.0], [-100.443242, 26.514816, 0.0], [-100.443067, 26.514805, 0.0], [-100.441897, 26.514891, 0.0], [-100.439661, 26.513737, 0.0], [-100.439203, 26.513121, 0.0], [-100.441141, 26.51217, 0.0], [-100.442696, 26.51141, 0.0], [-100.444701, 26.51043, 0.0], [-100.445949, 26.50982, 0.0], [-100.447348, 26.509136, 0.0], [-100.453503, 26.51955, 0.0], [-100.453696, 26.519875, 0.0], [-100.453884, 26.520193, 0.0], [-100.454071, 26.520509, 0.0], [-100.454253, 26.520818, 0.0], [-100.454447, 26.521147, 0.0], [-100.454633, 26.521461, 0.0], [-100.454727, 26.52162, 0.0], [-100.454919, 26.521944, 0.0], [-100.455106, 26.522261, 0.0], [-100.455295, 26.52258, 0.0], [-100.455483, 26.522898, 0.0], [-100.455522, 26.522966, 0.0], [-100.455669, 26.52322, 0.0], [-100.455758, 26.523376, 0.0], [-100.455939, 26.523698, 0.0], [-100.45598, 26.523774, 0.0]]]]}}, {"type": "Feature", "properties": {"ID": "5", "NOMENCALTURA": "SNL-VIL-004-3-GS", "ESTATUS 1": "NG", "NOMBRE DE PROPIETARIO": "LEO EDUARDO VILLAREAL (ESPIGA)", "COLOR": "#FFFF00", "COLOR_RGBA": "#FFFF00FF", "COLOR_RGB": "255,255,0"}, "geometry": {"type": "MultiPolygon", "coordinates": [[[[-100.457337, 26.528807, 0.0], [-100.453251, 26.528527, 0.0], [-100.456549, 26.525084, 0.0], [-100.456772, 26.525239, 0.0], [-100.457919, 26.52738, 0.0], [-100.457904, 26.527456, 0.0], [-100.457856, 26.527524, 0.0], [-100.457337, 26.528807, 0.0]]]]}}, {"type": "Feature", "properties": {"ID": "6", "NOMENCALTURA": "SNL-VIL-005", "ESTATUS 1": "NG", "NOMBRE DE PROPIETARIO": "LEO EDUARDO VILLAREAL VILLAREAL (NOGALERA)", "COLOR": "#FFFF00", "COLOR_RGBA": "#FFFF00FF", "COLOR_RGB": "255,255,0"}, "geometry": {"type": "MultiPolygon", "coordinates": [[[[-100.457337, 26.528807, 0.0], [-100.457856, 26.527524, 0.0], [-100.46635, 26.543108, 0.0], [-100.466405, 26.543209, 0.0], [-100.466579, 26.543532, 0.0], [-100.466754, 26.543859, 0.0], [-100.466929, 26.544185, 0.0], [-100.467096, 26.544497, 0.0], [-100.45916, 26.546124, 0.0], [-100.458462, 26.541335, 0.0], [-100.45487, 26.537504, 0.0], [-100.457611, 26.536954, 0.0], [-100.458835, 26.536708, 0.0], [-100.459535, 26.536567, 0.0], [-100.459792, 26.536516, 0.0], [-100.460284, 26.536417, 0.0], [-100.460768, 26.536205, 0.0], [-100.461583, 26.535849, 0.0], [-100.460882, 26.534223, 0.0], [-100.460012, 26.534449, 0.0], [-100.459464, 26.534591, 0.0], [-100.459066, 26.534828, 0.0], [-100.458337, 26.535262, 0.0], [-100.458237, 26.535321, 0.0], [-100.457179, 26.535951, 0.0], [-100.454793, 26.537371, 0.0], [-100.449895, 26.532191, 0.0], [-100.451147, 26.531242, 0.0], [-100.452767, 26.532467, 0.0], [-100.454798, 26.532657, 0.0], [-100.456904, 26.530409, 0.0], [-100.457042, 26.529538, 0.0], [-100.457337, 26.528807, 0.0]]]]}}, {"type": "Feature", "properties": {"ID": "29", "NOMENCALTURA": "SNL-BUS-003", "ESTATUS 1": "NG", "NOMBRE DE PROPIETARIO": "ABEL GUADALUPE GONZALEZ", "COLOR": "#FFFF00", "COLOR_RGBA": "#FFFF00FF", "COLOR_RGB": "255,255,0"}, "geometry": {"type": "MultiPolygon", "coordinates": [[[[-100.484781, 26.60292, 0.0], [-100.484954, 26.604952, 0.0], [-100.481205, 26.605151, 0.0], [-100.480861, 26.603334, 0.0], [-100.484781, 26.60292, 0.0]]]]}}, {"type": "Feature", "properties": {"ID": "28", "NOMENCALTURA": "SNL-BUS-002", "ESTATUS 1": "NG", "NOMBRE DE PROPIETARIO": "ABEL GUADALUPE FLORES", "COLOR": "#FFFF00", "COLOR_RGBA": "#FFFF00FF", "COLOR_RGB": "255,255,0"}, "geometry": {"type": "MultiPolygon", "coordinates": [[[[-100.484781, 26.60292, 0.0], [-100.480861, 26.603334, 0.0], [-100.480697, 26.60244, 0.0], [-100.484132, 26.600995, 0.0], [-100.484414, 26.600835, 0.0], [-100.484602, 26.600728, 0.0], [-100.484602, 26.600728, 0.0], [-100.484602, 26.600728, 0.0], [-100.484731, 26.602213, 0.0], [-100.484781, 26.60292, 0.0]]]]}}, {"type": "Feature", "properties": {"ID": "30", "NOMENCALTURA": "SNL-BUS-004", "ESTATUS 1": "NG", "NOMBRE DE PROPIETARIO": "ABEL GUADALUPE FLORES", "COLOR": "#FFFF00", "COLOR_RGBA": "#FFFF00FF", "COLOR_RGB": "255,255,0"}, "geometry": {"type": "MultiPolygon", "coordinates": [[[[-100.481205, 26.605151, 0.0], [-100.484954, 26.604952, 0.0], [-100.485035, 26.6059, 0.0], [-100.481428, 26.606385, 0.0], [-100.481393, 26.60845, 0.0], [-100.481359, 26.610748, 0.0], [-100.478564, 26.61024, 0.0], [-100.478576, 26.609983, 0.0], [-100.478551, 26.609074, 0.0], [-100.478525, 26.608131, 0.0], [-100.478487, 26.607229, 0.0], [-100.478462, 26.606325, 0.0], [-100.478425, 26.605425, 0.0], [-100.481205, 26.605151, 0.0]]]]}}, {"type": "Feature", "properties": {"ID": "27", "NOMENCALTURA": "SNL-BUS-001-2", "ESTATUS 1": "NL", "NOMBRE DE PROPIETARIO": "DESCONOCIDO (L-9999 Zn-1 Mz-37 S-1)", "COLOR": "#FF0000", "COLOR_RGBA": "#FF0000FF", "COLOR_RGB": "255,0,0"}, "geometry": {"type": "MultiPolygon", "coordinates": [[[[-100.484602, 26.600728, 0.0], [-100.484414, 26.600835, 0.0], [-100.484132, 26.600995, 0.0], [-100.483697, 26.599584, 0.0], [-100.4845, 26.599552, 0.0], [-100.484602, 26.600728, 0.0]]]]}}, {"type": "Feature", "properties": {"ID": "32", "NOMENCALTURA": "SNL-BUS-006", "ESTATUS 1": "L", "NOMBRE DE PROPIETARIO": "OSCAR ALEJJANDRO UGARTE", "COLOR": "#00FF00", "COLOR_RGBA": "#00FF00FF", "COLOR_RGB": "0,255,0"}, "geometry": {"type": "MultiPolygon", "coordinates": [[[[-100.481359, 26.610748, 0.0], [-100.481393, 26.60845, 0.0], [-100.485223, 26.608139, 0.0], [-100.485421, 26.610465, 0.0], [-100.481359, 26.610748, 0.0]]]]}}, {"type": "Feature", "properties": {"ID": "31", "NOMENCALTURA": "SNL-BUS-005", "ESTATUS 1": "NG", "NOMBRE DE PROPIETARIO": "ABEL GUADALUPE FLORES", "COLOR": "#FFFF00", "COLOR_RGBA": "#FFFF00FF", "COLOR_RGB": "255,255,0"}, "geometry": {"type": "MultiPolygon", "coordinates": [[[[-100.481393, 26.60845, 0.0], [-100.481428, 26.606385, 0.0], [-100.485035, 26.6059, 0.0], [-100.485223, 26.608139, 0.0], [-100.481393, 26.60845, 0.0]]]]}}, {"type": "Feature", "properties": {"ID": "33", "NOMENCALTURA": "SNL-BUS-007", "ESTATUS 1": "L", "NOMBRE DE PROPIETARIO": "FRANCISCO ALEJANDRO UGARTE", "COLOR": "#00FF00", "COLOR_RGBA": "#00FF00FF", "COLOR_RGB": "0,255,0"}, "geometry": {"type": "MultiPolygon", "coordinates": [[[[-100.481359, 26.610748, 0.0], [-100.485421, 26.610465, 0.0], [-100.485632, 26.612932, 0.0], [-100.481762, 26.613224, 0.0], [-100.481326, 26.613252, 0.0], [-100.481321, 26.613024, 0.0], [-100.481359, 26.610748, 0.0]]]]}}, {"type": "Feature", "properties": {"ID": "34", "NOMENCALTURA": "SNL-BUS-008", "ESTATUS 1": "L", "NOMBRE DE PROPIETARIO": "KARINA UGARTE SANTOS", "COLOR": "#00FF00", "COLOR_RGBA": "#00FF00FF", "COLOR_RGB": "0,255,0"}, "geometry": {"type": "MultiPolygon", "coordinates": [[[[-100.481762, 26.613224, 0.0], [-100.485632, 26.612932, 0.0], [-100.48588, 26.615924, 0.0], [-100.482361, 26.616623, 0.0], [-100.481997, 26.614639, 0.0], [-100.481762, 26.613224, 0.0]]]]}}, {"type": "Feature", "properties": {"ID": "37", "NOMENCALTURA": "SNL-BUS-009", "ESTATUS 1": "L", "NOMBRE DE PROPIETARIO": "FRANCISCO ALEJANDRO ANCIRA", "COLOR": "#00FF00", "COLOR_RGBA": "#00FF00FF", "COLOR_RGB": "0,255,0"}, "geometry": {"type": "MultiPolygon", "coordinates": [[[[-100.486137, 26.61893, 0.0], [-100.481883, 26.61976, 0.0], [-100.481967, 26.620639, 0.0], [-100.47963, 26.620294, 0.0], [-100.480455, 26.61886, 0.0], [-100.480454, 26.619061, 0.0], [-100.484274, 26.618535, 0.0], [-100.484097, 26.617298, 0.0], [-100.485969, 26.616979, 0.0], [-100.486137, 26.61893, 0.0]]]]}}, {"type": "Feature", "properties": {"ID": "38", "NOMENCALTURA": "SNL-BUS-010", "ESTATUS 1": "R", "NOMBRE DE PROPIETARIO": "FELIX HUMBERTO GONZALEZ", "COLOR": "#A0522D", "COLOR_RGBA": "#A0522DFF", "COLOR_RGB": "160,82,45"}, "geometry": {"type": "MultiPolygon", "coordinates": [[[[-100.481883, 26.61976, 0.0], [-100.486137, 26.61893, 0.0], [-100.486209, 26.619851, 0.0], [-100.482595, 26.620744, 0.0], [-100.481967, 26.620639, 0.0], [-100.481883, 26.61976, 0.0]]]]}}, {"type": "Feature", "properties": {"ID": "36", "NOMENCALTURA": "SNL-FRV-P118", "ESTATUS 1": "NG", "NOMBRE DE PROPIETARIO": "ROSALINDA RIOS VALVERDE", "COLOR": "#FFFF00", "COLOR_RGBA": "#FFFF00FF", "COLOR_RGB": "255,255,0"}, "geometry": {"type": "MultiPolygon", "coordinates": [[[[-100.485969, 26.616979, 0.0], [-100.484097, 26.617298, 0.0], [-100.483382, 26.617422, 0.0], [-100.483162, 26.61651, 0.0], [-100.485886, 26.61601, 0.0], [-100.485969, 26.616979, 0.0]]]]}}, {"type": "Feature", "properties": {"ID": "44", "NOMENCALTURA": "SNL-LAM-000-1-GS", "ESTATUS 1": "NL", "NOMBRE DE PROPIETARIO": "JOSE CATALINO MONTEMAYOR CARDENAS", "COLOR": "#FF0000", "COLOR_RGBA": "#FF0000FF", "COLOR_RGB": "255,0,0"}, "geometry": {"type": "MultiPolygon", "coordinates": [[[[-100.483483, 26.633932, 0.0], [-100.487267, 26.632311, 0.0], [-100.487374, 26.633598, 0.0], [-100.487607, 26.636389, 0.0], [-100.487756, 26.638182, 0.0], [-100.487921, 26.640085, 0.0], [-100.488016, 26.641271, 0.0], [-100.488172, 26.643146, 0.0], [-100.488285, 26.64444, 0.0], [-100.488376, 26.645565, 0.0], [-100.488496, 26.646955, 0.0], [-100.488618, 26.648429, 0.0], [-100.488826, 26.650941, 0.0], [-100.488993, 26.652866, 0.0], [-100.489116, 26.654293, 0.0], [-100.489159, 26.654797, 0.0], [-100.489261, 26.656018, 0.0], [-100.489359, 26.657161, 0.0], [-100.489452, 26.658266, 0.0], [-100.489516, 26.659023, 0.0], [-100.489575, 26.659732, 0.0], [-100.489646, 26.660547, 0.0], [-100.48973, 26.661556, 0.0], [-100.489809, 26.662516, 0.0], [-100.489878, 26.66332, 0.0], [-100.489934, 26.663996, 0.0], [-100.490017, 26.664992, 0.0], [-100.490097, 26.665939, 0.0], [-100.490178, 26.666877, 0.0], [-100.490257, 26.667809, 0.0], [-100.490288, 26.66818, 0.0], [-100.4901, 26.668152, 0.0], [-100.476378, 26.665745, 0.0], [-100.472476, 26.638653, 0.0], [-100.474319, 26.637864, 0.0], [-100.477874, 26.63634, 0.0], [-100.483485, 26.633936, 0.0], [-100.483483, 26.633932, 0.0]]]]}}, {"type": "Feature", "properties": {"ID": "67", "NOMENCALTURA": "SNL-SLV-044", "ESTATUS 1": "NL", "NOMBRE DE PROPIETARIO": "MARIA MARTINEZ TREVIÑO (OSA)", "COLOR": "#FF0000", "COLOR_RGBA": "#FF0000FF", "COLOR_RGB": "255,0,0"}, "geometry": {"type": "MultiPolygon", "coordinates": [[[[-100.322339, 26.110362, 0.0], [-100.305002, 26.113305, 0.0], [-100.30417, 26.111266, 0.0], [-100.321964, 26.106701, 0.0], [-100.322119, 26.107423, 0.0], [-100.322168, 26.10769, 0.0], [-100.32218, 26.107773, 0.0], [-100.322202, 26.10795, 0.0], [-100.322218, 26.108094, 0.0], [-100.322227, 26.108309, 0.0], [-100.322264, 26.108777, 0.0], [-100.322339, 26.110362, 0.0]]]]}}, {"type": "Feature", "properties": {"ID": "84", "NOMENCALTURA": "SNL-SLV-056-2-GS", "ESTATUS 1": "L", "NOMBRE DE PROPIETARIO": "CELINA CANTU ZAMBRANO ", "COLOR": "#00FF00", "COLOR_RGBA": "#00FF00FF", "COLOR_RGB": "0,255,0"}, "geometry": {"type": "MultiPolygon", "coordinates": [[[[-100.29948, 26.287721, 0.0], [-100.376299, 26.276711, 0.0], [-100.377574, 26.285868, 0.0], [-100.303811, 26.295976, 0.0], [-100.29948, 26.287721, 0.0]]]]}}, {"type": "Feature", "properties": {"ID": "85", "NOMENCALTURA": "SNL-SLV-056-6", "ESTATUS 1": "L", "NOMBRE DE PROPIETARIO": "ISABEL CANTU ZAMBRANO", "COLOR": "#00FF00", "COLOR_RGBA": "#00FF00FF", "COLOR_RGB": "0,255,0"}, "geometry": {"type": "MultiPolygon", "coordinates": [[[[-100.303811, 26.295976, 0.0], [-100.377574, 26.285868, 0.0], [-100.378768, 26.29444, 0.0], [-100.308268, 26.302818, 0.0], [-100.303811, 26.295976, 0.0]]]]}}, {"type": "Feature", "properties": {"ID": "22", "NOMENCALTURA": "SNL-VIL-012", "ESTATUS 1": "NL", "NOMBRE DE PROPIETARIO": "DE LA LUNA FLORES NOE", "COLOR": "#FF0000", "COLOR_RGBA": "#FF0000FF", "COLOR_RGB": "255,0,0"}, "geometry": {"type": "MultiPolygon", "coordinates": [[[[-100.482723, 26.579501, 0.0], [-100.482807, 26.580857, 0.0], [-100.482919, 26.58109, 0.0], [-100.483132, 26.583946, 0.0], [-100.481718, 26.58442, 0.0], [-100.479948, 26.580096, 0.0], [-100.482723, 26.579501, 0.0]]]]}}, {"type": "Feature", "properties": {"ID": "21", "NOMENCALTURA": "SNL-VIL-P50", "ESTATUS 1": "NL", "NOMBRE DE PROPIETARIO": "JOSE FUENTES JARAMILLO", "COLOR": "#FF0000", "COLOR_RGBA": "#FF0000FF", "COLOR_RGB": "255,0,0"}, "geometry": {"type": "MultiPolygon", "coordinates": [[[[-100.482723, 26.579501, 0.0], [-100.479948, 26.580096, 0.0], [-100.479108, 26.578043, 0.0], [-100.47873, 26.57712, 0.0], [-100.482526, 26.576344, 0.0], [-100.482719, 26.578783, 0.0], [-100.482686, 26.578913, 0.0], [-100.482723, 26.579501, 0.0]]]]}}, {"type": "Feature", "properties": {"ID": "20", "NOMENCALTURA": "SNL-VIL-011", "ESTATUS 1": "NL", "NOMBRE DE PROPIETARIO": "DE LUNA FLORES ", "COLOR": "#FF0000", "COLOR_RGBA": "#FF0000FF", "COLOR_RGB": "255,0,0"}, "geometry": {"type": "MultiPolygon", "coordinates": [[[[-100.482526, 26.576344, 0.0], [-100.47873, 26.57712, 0.0], [-100.478623, 26.57686, 0.0], [-100.477933, 26.575177, 0.0], [-100.477738, 26.5747, 0.0], [-100.482219, 26.573787, 0.0], [-100.482321, 26.574342, 0.0], [-100.482423, 26.575162, 0.0], [-100.482526, 26.576344, 0.0]]]]}}, {"type": "Feature", "properties": {"ID": "19", "NOMENCALTURA": "SNL-VIL-010", "ESTATUS 1": "L", "NOMBRE DE PROPIETARIO": "RODRIGO RINCON ISLAS", "COLOR": "#00FF00", "COLOR_RGBA": "#00FF00FF", "COLOR_RGB": "0,255,0"}, "geometry": {"type": "MultiPolygon", "coordinates": [[[[-100.482219, 26.573787, 0.0], [-100.477738, 26.5747, 0.0], [-100.477471, 26.574048, 0.0], [-100.477009, 26.572921, 0.0], [-100.476832, 26.572489, 0.0], [-100.481546, 26.571571, 0.0], [-100.48207, 26.572981, 0.0], [-100.482219, 26.573787, 0.0]]]]}}, {"type": "Feature", "properties": {"ID": "18", "NOMENCALTURA": "SNL-VIL-009", "ESTATUS 1": "NL", "NOMBRE DE PROPIETARIO": "JOSE ELIAS FLORE NAVARRO ", "COLOR": "#FF0000", "COLOR_RGBA": "#FF0000FF", "COLOR_RGB": "255,0,0"}, "geometry": {"type": "MultiPolygon", "coordinates": [[[[-100.481546, 26.571571, 0.0], [-100.476832, 26.572489, 0.0], [-100.476151, 26.570828, 0.0], [-100.475965, 26.570373, 0.0], [-100.480457, 26.569526, 0.0], [-100.481546, 26.571571, 0.0]]]]}}, {"type": "Feature", "properties": {"ID": "17", "NOMENCALTURA": "SNL-VIL-P54", "ESTATUS 1": "NL", "NOMBRE DE PROPIETARIO": "RUBEN AGUILAR ALFORO", "COLOR": "#FF0000", "COLOR_RGBA": "#FF0000FF", "COLOR_RGB": "255,0,0"}, "geometry": {"type": "MultiPolygon", "coordinates": [[[[-100.480457, 26.569526, 0.0], [-100.475965, 26.570373, 0.0], [-100.475083, 26.568216, 0.0], [-100.479353, 26.567467, 0.0], [-100.480457, 26.569526, 0.0]]]]}}, {"type": "Feature", "properties": {"ID": "16", "NOMENCALTURA": "SNL-VIL-P55", "ESTATUS 1": "NL", "NOMBRE DE PROPIETARIO": "JUAN AMARO GUEL", "COLOR": "#FF0000", "COLOR_RGBA": "#FF0000FF", "COLOR_RGB": "255,0,0"}, "geometry": {"type": "MultiPolygon", "coordinates": [[[[-100.479353, 26.567467, 0.0], [-100.475083, 26.568216, 0.0], [-100.474132, 26.56589, 0.0], [-100.478135, 26.565194, 0.0], [-100.479353, 26.567467, 0.0]]]]}}, {"type": "Feature", "properties": {"ID": "15", "NOMENCALTURA": "SNL-VIL-P56", "ESTATUS 1": "NL", "NOMBRE DE PROPIETARIO": "ESPETACION AMARO GUEL", "COLOR": "#FF0000", "COLOR_RGBA": "#FF0000FF", "COLOR_RGB": "255,0,0"}, "geometry": {"type": "MultiPolygon", "coordinates": [[[[-100.478135, 26.565194, 0.0], [-100.474132, 26.56589, 0.0], [-100.473212, 26.563642, 0.0], [-100.476762, 26.562633, 0.0], [-100.478135, 26.565194, 0.0]]]]}}, {"type": "Feature", "properties": {"ID": "14", "NOMENCALTURA": "SNL-VIL-008-3", "ESTATUS 1": "NL", "NOMBRE DE PROPIETARIO": "ESPINOZA RINCON ROMAN", "COLOR": "#FF0000", "COLOR_RGBA": "#FF0000FF", "COLOR_RGB": "255,0,0"}, "geometry": {"type": "MultiPolygon", "coordinates": [[[[-100.476762, 26.562633, 0.0], [-100.473212, 26.563642, 0.0], [-100.472105, 26.560934, 0.0], [-100.475352, 26.560002, 0.0], [-100.476762, 26.562633, 0.0]]]]}}, {"type": "Feature", "properties": {"ID": "13", "NOMENCALTURA": "SNL-VIL-P58", "ESTATUS 1": "NL", "NOMBRE DE PROPIETARIO": "DESIDERIO ESPINOZA RINCON", "COLOR": "#FF0000", "COLOR_RGBA": "#FF0000FF", "COLOR_RGB": "255,0,0"}, "geometry": {"type": "MultiPolygon", "coordinates": [[[[-100.475352, 26.560002, 0.0], [-100.472105, 26.560934, 0.0], [-100.47098, 26.558181, 0.0], [-100.473987, 26.557462, 0.0], [-100.474241, 26.557937, 0.0], [-100.474597, 26.558487, 0.0], [-100.474683, 26.558754, 0.0], [-100.475352, 26.560002, 0.0]]]]}}, {"type": "Feature", "properties": {"ID": "12", "NOMENCALTURA": "SNL-VIL-008-2", "ESTATUS 1": "NL", "NOMBRE DE PROPIETARIO": "AMERICO DE LUNA VILLAREAL ZN-1 P-59 FRACCION 1", "COLOR": "#FF0000", "COLOR_RGBA": "#FF0000FF", "COLOR_RGB": "255,0,0"}, "geometry": {"type": "MultiPolygon", "coordinates": [[[[-100.473987, 26.557462, 0.0], [-100.47098, 26.558181, 0.0], [-100.469553, 26.554692, 0.0], [-100.472087, 26.553912, 0.0], [-100.473987, 26.557462, 0.0]]]]}}, {"type": "Feature", "properties": {"ID": "11", "NOMENCALTURA": "SNL-VIL-P60", "ESTATUS 1": "NL", "NOMBRE DE PROPIETARIO": "JUAN JOSE MENDOZA SUCEDO (AMERICO DE LUNA VILLAREAL ZN-1 P-60)", "COLOR": "#FF0000", "COLOR_RGBA": "#FF0000FF", "COLOR_RGB": "255,0,0"}, "geometry": {"type": "MultiPolygon", "coordinates": [[[[-100.472087, 26.553912, 0.0], [-100.469553, 26.554692, 0.0], [-100.468125, 26.5512, 0.0], [-100.470197, 26.550378, 0.0], [-100.472087, 26.553912, 0.0]]]]}}, {"type": "Feature", "properties": {"ID": "25", "NOMENCALTURA": "SNL-BUS-001-1", "ESTATUS 1": "NL", "NOMBRE DE PROPIETARIO": "RESERVA DE CRECIMIENTO EJ FRANSICO VILLA", "COLOR": "#FF0000", "COLOR_RGBA": "#FF0000FF", "COLOR_RGB": "255,0,0"}, "geometry": {"type": "MultiPolygon", "coordinates": [[[[-100.484322, 26.59945, 0.0], [-100.484185, 26.598875, 0.0], [-100.484437, 26.598826, 0.0], [-100.48449, 26.599444, 0.0], [-100.484322, 26.59945, 0.0]]]]}}, {"type": "Feature", "properties": {"ID": "1", "NOMENCALTURA": "SNL-VIL-001", "ESTATUS 1": "NL", "NOMBRE DE PROPIETARIO": "GARCIA PEREZ ELIDA JOSEFINA", "COLOR": "#FF0000", "COLOR_RGBA": "#FF0000FF", "COLOR_RGB": "255,0,0"}, "geometry": {"type": "MultiPolygon", "coordinates": [[[[-100.434539, 26.486592, 0.0], [-100.433969, 26.487064, 0.0], [-100.433849, 26.486718, 0.0], [-100.433467, 26.487009, 0.0], [-100.432415, 26.483836, 0.0], [-100.43209, 26.482856, 0.0], [-100.43197, 26.482509, 0.0], [-100.432181, 26.482431, 0.0], [-100.434539, 26.486592, 0.0]]]]}}, {"type": "Feature", "properties": {"ID": "54", "NOMENCALTURA": "SNL-VM-USC001", "ESTATUS 1": "NL", "NOMBRE DE PROPIETARIO": "EJIDO VILLARREALES Y MORALES FRACCION 1 (USO COMUN 1)", "COLOR": "#FF0000", "COLOR_RGBA": "#FF0000FF", "COLOR_RGB": "255,0,0"}, "geometry": {"type": "MultiPolygon", "coordinates": [[[[-100.31097, 26.078938, 0.0], [-100.311048, 26.07892, 0.0], [-100.311573, 26.08025, 0.0], [-100.311102, 26.080342, 0.0], [-100.310265, 26.082739, 0.0], [-100.310769, 26.08274, 0.0], [-100.310311, 26.086136, 0.0], [-100.310013, 26.087977, 0.0], [-100.309983, 26.088261, 0.0], [-100.310012, 26.088546, 0.0], [-100.307491, 26.088668, 0.0], [-100.305717, 26.084389, 0.0], [-100.305832, 26.08432, 0.0], [-100.306883, 26.08369, 0.0], [-100.306777, 26.083412, 0.0], [-100.305833, 26.080853, 0.0], [-100.308201, 26.07953, 0.0], [-100.31097, 26.078938, 0.0]]]]}}, {"type": "Feature", "properties": {"ID": "48", "NOMENCALTURA": "SNL-LAM-001", "ESTATUS 1": "NL", "NOMBRE DE PROPIETARIO": "BERNADO RAMIREZ (Mina) / Marcos Guillermo Rodriguez Cortes", "COLOR": "#FF0000", "COLOR_RGBA": "#FF0000FF", "COLOR_RGB": "255,0,0"}, "geometry": {"type": "MultiPolygon", "coordinates": [[[[-100.497509, 26.758949, 0.0], [-100.496506, 26.759018, 0.0], [-100.496662, 26.76084, 0.0], [-100.489854, 26.763198, 0.0], [-100.489842, 26.76279, 0.0], [-100.489803, 26.762282, 0.0], [-100.489736, 26.761752, 0.0], [-100.489248, 26.758349, 0.0], [-100.48639, 26.738446, 0.0], [-100.495866, 26.739693, 0.0], [-100.497509, 26.758949, 0.0]]]]}}, {"type": "Feature", "properties": {"ID": "45", "NOMENCALTURA": "SNL-LAM-001-1", "ESTATUS 1": "NL", "NOMBRE DE PROPIETARIO": "CANTU CANTU JOSE SANTOS", "COLOR": "#FF0000", "COLOR_RGBA": "#FF0000FF", "COLOR_RGB": "255,0,0"}, "geometry": {"type": "MultiPolygon", "coordinates": [[[[-100.49023, 26.668193, 0.0], [-100.493379, 26.706301, 0.0], [-100.482439, 26.707529, 0.0], [-100.481655, 26.702431, 0.0], [-100.48093, 26.702518, 0.0], [-100.413492, 26.663832, 0.0], [-100.428572, 26.657325, 0.0], [-100.475774, 26.665637, 0.0], [-100.49023, 26.668193, 0.0]]]]}}, {"type": "Feature", "properties": {"ID": "47", "NOMENCALTURA": "SNL-LAM-001-2-GS", "ESTATUS 1": "NL", "NOMBRE DE PROPIETARIO": "BERNADO RAMIREZ (Mina) / Marcos Guillermo Rodriguez Cortes", "COLOR": "#FF0000", "COLOR_RGBA": "#FF0000FF", "COLOR_RGB": "255,0,0"}, "geometry": {"type": "MultiPolygon", "coordinates": [[[[-100.494911, 26.722872, 0.0], [-100.485468, 26.730751, 0.0], [-100.484603, 26.723055, 0.0], [-100.492957, 26.722891, 0.0], [-100.494911, 26.722872, 0.0]]]]}}, {"type": "Feature", "properties": {"ID": "47", "NOMENCALTURA": "SLN-LAM-001-3-GS", "ESTATUS 1": "NL", "NOMBRE DE PROPIETARIO": "BERNADO RAMIREZ (Mina) / Marcos Guillermo Rodriguez Cortes", "COLOR": "#FF0000", "COLOR_RGBA": "#FF0000FF", "COLOR_RGB": "255,0,0"}, "geometry": {"type": "MultiPolygon", "coordinates": [[[[-100.485468, 26.730751, 0.0], [-100.494911, 26.722872, 0.0], [-100.495928, 26.734898, 0.0], [-100.486235, 26.736266, 0.0], [-100.485468, 26.730751, 0.0]]]]}}, {"type": "Feature", "properties": {"ID": "47", "NOMENCALTURA": "SNL-LAM-001-04-GS", "ESTATUS 1": "NL", "NOMBRE DE PROPIETARIO": "BERNADO RAMIREZ (Mina) / Marcos Guillermo Rodriguez Cortes", "COLOR": "#FF0000", "COLOR_RGBA": "#FF0000FF", "COLOR_RGB": "255,0,0"}, "geometry": {"type": "MultiPolygon", "coordinates": [[[[-100.495928, 26.734898, 0.0], [-100.496337, 26.739761, 0.0], [-100.495866, 26.739693, 0.0], [-100.48639, 26.738446, 0.0], [-100.486235, 26.736266, 0.0], [-100.495928, 26.734898, 0.0]]]]}}, {"type": "Feature", "properties": {"ID": "46", "NOMENCALTURA": "SNL-LAM-001-5", "ESTATUS 1": "NL", "NOMBRE DE PROPIETARIO": "CANTU CANTU JOSE SANTOS", "COLOR": "#FF0000", "COLOR_RGBA": "#FF0000FF", "COLOR_RGB": "255,0,0"}, "geometry": {"type": "MultiPolygon", "coordinates": [[[[-100.494732, 26.722788, 0.0], [-100.484177, 26.723066, 0.0], [-100.464822, 26.723187, 0.0], [-100.454293, 26.725919, 0.0], [-100.390404, 26.673522, 0.0], [-100.413492, 26.663832, 0.0], [-100.48093, 26.702518, 0.0], [-100.481655, 26.702431, 0.0], [-100.482439, 26.707529, 0.0], [-100.493379, 26.706301, 0.0], [-100.494732, 26.722788, 0.0]]]]}}, {"type": "Feature", "properties": {"ID": "50", "NOMENCALTURA": "SNL-LAM-002-1", "ESTATUS 1": "L", "NOMBRE DE PROPIETARIO": "ALONSO QUIJANO DAVALOS Y TERESA QUIJANO DAVALOS", "COLOR": "#00FF00", "COLOR_RGBA": "#00FF00FF", "COLOR_RGB": "0,255,0"}, "geometry": {"type": "MultiPolygon", "coordinates": [[[[-100.490384, 26.806092, 0.0], [-100.501316, 26.799111, 0.0], [-100.500031, 26.783774, 0.0], [-100.490341, 26.784428, 0.0], [-100.490384, 26.806092, 0.0]]]]}}, {"type": "Feature", "properties": {"ID": "51", "NOMENCALTURA": "SNL-LAM-002-1-GS", "ESTATUS 1": "R", "NOMBRE DE PROPIETARIO": "DAVID MORALES", "COLOR": "#A0522D", "COLOR_RGBA": "#A0522DFF", "COLOR_RGB": "160,82,45"}, "geometry": {"type": "MultiPolygon", "coordinates": [[[[-100.501316, 26.799111, 0.0], [-100.502736, 26.816124, 0.0], [-100.502967, 26.818916, 0.0], [-100.491974, 26.823807, 0.0], [-100.490384, 26.806092, 0.0], [-100.501316, 26.799111, 0.0]]]]}}, {"type": "Feature", "properties": {"ID": "53", "NOMENCALTURA": "SNL-LAM-003", "ESTATUS 1": "R", "NOMBRE DE PROPIETARIO": "TREVIÑO GARZA ADOLFO JOSE (amparo)", "COLOR": "#A0522D", "COLOR_RGBA": "#A0522DFF", "COLOR_RGB": "160,82,45"}, "geometry": {"type": "MultiPolygon", "coordinates": [[[[-100.507048, 26.869825, 0.0], [-100.496697, 26.870686, 0.0], [-100.494836, 26.852972, 0.0], [-100.493181, 26.837796, 0.0], [-100.504831, 26.84165, 0.0], [-100.507048, 26.869825, 0.0]]]]}}, {"type": "Feature", "properties": {"ID": "52", "NOMENCALTURA": "SNL-LAM-002-2-GS", "ESTATUS 1": "R", "NOMBRE DE PROPIETARIO": "ROSENDO CHAPA CONTRERAS (Albacea)", "COLOR": "#A0522D", "COLOR_RGBA": "#A0522DFF", "COLOR_RGB": "160,82,45"}, "geometry": {"type": "MultiPolygon", "coordinates": [[[[-100.502967, 26.818916, 0.0], [-100.50483, 26.841459, 0.0], [-100.493155, 26.837489, 0.0], [-100.491974, 26.823807, 0.0], [-100.502967, 26.818916, 0.0]]]]}}, {"type": "Feature", "properties": {"ID": "54", "NOMENCALTURA": "SNL-LAM-003-1", "ESTATUS 1": "R", "NOMBRE DE PROPIETARIO": "INDUSTRIAS ALEN ", "COLOR": "#A0522D", "COLOR_RGBA": "#A0522DFF", "COLOR_RGB": "160,82,45"}, "geometry": {"type": "MultiPolygon", "coordinates": [[[[-100.496697, 26.870686, 0.0], [-100.507048, 26.869825, 0.0], [-100.507198, 26.871719, 0.0], [-100.507284, 26.872818, 0.0], [-100.496936, 26.87296, 0.0], [-100.496833, 26.871975, 0.0], [-100.496697, 26.870686, 0.0]]]]}}, {"type": "Feature", "properties": {"ID": "26", "NOMENCALTURA": "SNL-FRV-USC001", "ESTATUS 1": "L", "NOMBRE DE PROPIETARIO": "N.C.P.E. FRANCISCO VILLA - FRACCIÓN 1 (USO COMÚN 1)", "COLOR": "#00FF00", "COLOR_RGBA": "#00FF00FF", "COLOR_RGB": "0,255,0"}, "geometry": {"type": "MultiPolygon", "coordinates": [[[[-100.4845, 26.599552, 0.0], [-100.484384, 26.599556, 0.0], [-100.484377, 26.599448, 0.0], [-100.48449, 26.599443, 0.0], [-100.4845, 26.599552, 0.0]]]]}}, {"type": "Feature", "properties": {"ID": "35", "NOMENCALTURA": "SNL-FRV-USC002", "ESTATUS 1": "L", "NOMBRE DE PROPIETARIO": "N.C.P.E. FRANCISCO VILLA - FRACCIÓN 2 (ANDADOR 1)", "COLOR": "#00FF00", "COLOR_RGBA": "#00FF00FF", "COLOR_RGB": "0,255,0"}, "geometry": {"type": "MultiPolygon", "coordinates": [[[[-100.485886, 26.61601, 0.0], [-100.485826, 26.616022, 0.0], [-100.485818, 26.615936, 0.0], [-100.48588, 26.615924, 0.0], [-100.485886, 26.61601, 0.0]]]]}}, {"type": "Feature", "properties": {"ID": "41", "NOMENCALTURA": "SNL-FRV-USC003", "ESTATUS 1": "L", "NOMBRE DE PROPIETARIO": "N.C.P.E. FRANCISCO VILLA - FRACCIÓN 3 (ANDADOR 2)", "COLOR": "#00FF00", "COLOR_RGBA": "#00FF00FF", "COLOR_RGB": "0,255,0"}, "geometry": {"type": "MultiPolygon", "coordinates": [[[[-100.486675, 26.625329, 0.0], [-100.486614, 26.625311, 0.0], [-100.486601, 26.625133, 0.0], [-100.486658, 26.625151, 0.0], [-100.486675, 26.625329, 0.0]]]]}}]}